{"type": "FeatureCollection", "features": [{"type": "Feature", "geometry": {"geodesic": false, "type": "Polygon", "coordinates": [[[38.41069312037459, 47.21690710810519], [38.41398362600185, 47.21690710810519], [38.41398362600185, 47.219156392328095], [38.41069312037459, 47.219156392328095], [38.41069312037459, 47.21690710810519]]]}, "properties": {"id": "ROS1-01-0007", "tile": 1, "cell_id": "38.4_47.2", "cell_lon": 38.4, "cell_lat": 47.2, "cropland_frac": 1, "ndvi_std": 0.018594616426023985, "peak_ndvi": 0.3299833940381055}}, {"type": "Feature", "geometry": {"geodesic": false, "type": "Polygon", "coordinates": [[[38.96137465355525, 46.750681475647305], [38.964636585676175, 46.750681475647305], [38.964636585676175, 46.75293075987007], [38.96137465355525, 46.75293075987007], [38.96137465355525, 46.750681475647305]]]}, "properties": {"id": "ROS1-01-0003", "tile": 1, "cell_id": "39.0_46.8", "cell_lon": 39, "cell_lat": 46.8, "cropland_frac": 1, "ndvi_std": 0.014642580761469152, "peak_ndvi": 0.40411118424842035}}, {"type": "Feature", "geometry": {"geodesic": false, "type": "Polygon", "coordinates": [[[39.14640928859293, 47.34716282430247], [39.14970790608185, 47.34716282430247], [39.14970790608185, 47.34941210852542], [39.14640928859293, 47.34941210852542], [39.14640928859293, 47.34716282430247]]]}, "properties": {"id": "ROS1-07-0012", "tile": 7, "cell_id": "39.1_47.3", "cell_lon": 39.1, "cell_lat": 47.3, "cropland_frac": 1, "ndvi_std": 0.05766629615433273, "peak_ndvi": 0.3505187716297959}}, {"type": "Feature", "geometry": {"geodesic": false, "type": "Polygon", "coordinates": [[[39.08803179112888, 46.92585295605055], [39.09130437517697, 46.92585295605055], [39.09130437517697, 46.92810224027336], [39.08803179112888, 46.92810224027336], [39.08803179112888, 46.92585295605055]]]}, "properties": {"id": "ROS1-07-0011", "tile": 7, "cell_id": "39.1_46.9", "cell_lon": 39.1, "cell_lat": 46.9, "cropland_frac": 1, "ndvi_std": 0.009001635779417547, "peak_ndvi": 0.46937548753545766}}, {"type": "Feature", "geometry": {"geodesic": false, "type": "Polygon", "coordinates": [[[40.315075273816305, 48.652414932127705], [40.31845842468338, 48.652414932127705], [40.31845842468338, 48.65466421635109], [40.315075273816305, 48.65466421635109], [40.315075273816305, 48.652414932127705]]]}, "properties": {"id": "ROS1-15-0016", "tile": 15, "cell_id": "40.3_48.7", "cell_lon": 40.3, "cell_lat": 48.7, "cropland_frac": 1, "ndvi_std": 0.02878509690752724, "peak_ndvi": 0.47857791997233323}}, {"type": "Feature", "geometry": {"geodesic": false, "type": "Polygon", "coordinates": [[[40.88737714373109, 46.263794591654666], [40.89060998751118, 46.263794591654666], [40.89060998751118, 46.26604387587728], [40.88737714373109, 46.26604387587728], [40.88737714373109, 46.263794591654666]]]}, "properties": {"id": "ROS1-18-0007", "tile": 18, "cell_id": "40.9_46.3", "cell_lon": 40.9, "cell_lat": 46.3, "cropland_frac": 1, "ndvi_std": 0.017975403064687923, "peak_ndvi": 0.5308039843907961}}, {"type": "Feature", "geometry": {"geodesic": false, "type": "Polygon", "coordinates": [[[40.73733015134366, 47.20253406355928], [40.74061976535288, 47.20253406355928], [40.74061976535288, 47.20478334778218], [40.73733015134366, 47.20478334778218], [40.73733015134366, 47.20253406355928]]]}, "properties": {"id": "ROS1-19-0022", "tile": 19, "cell_id": "40.7_47.2", "cell_lon": 40.7, "cell_lat": 47.2, "cropland_frac": 1, "ndvi_std": 0.032070734913481495, "peak_ndvi": 0.4734490206658505}}, {"type": "Feature", "geometry": {"geodesic": false, "type": "Polygon", "coordinates": [[[39.477001431758964, 46.95459904514237], [39.48027577339166, 46.95459904514237], [39.48027577339166, 46.956848329365194], [39.477001431758964, 46.956848329365194], [39.477001431758964, 46.95459904514237]]]}, "properties": {"id": "ROS1-07-0018", "tile": 7, "cell_id": "39.5_47.0", "cell_lon": 39.5, "cell_lat": 47, "cropland_frac": 1, "ndvi_std": 0.046895967542469635, "peak_ndvi": 0.6442656203179419}}, {"type": "Feature", "geometry": {"geodesic": false, "type": "Polygon", "coordinates": [[[39.74020569322011, 47.02376932201953], [39.743484275173145, 47.02376932201953], [39.743484275173145, 47.02601860624239], [39.74020569322011, 47.02601860624239], [39.74020569322011, 47.02376932201953]]]}, "properties": {"id": "ROS1-13-0013", "tile": 13, "cell_id": "39.7_47.0", "cell_lon": 39.7, "cell_lat": 47, "cropland_frac": 1, "ndvi_std": 0.07377092678518885, "peak_ndvi": 0.6374528833906531}}, {"type": "Feature", "geometry": {"geodesic": false, "type": "Polygon", "coordinates": [[[39.872196560672734, 48.92729940906818], [39.87559829726826, 48.92729940906818], [39.87559829726826, 48.929548693291665], [39.872196560672734, 48.929548693291665], [39.872196560672734, 48.92729940906818]]]}, "properties": {"id": "ROS1-15-0006", "tile": 15, "cell_id": "39.9_48.9", "cell_lon": 39.9, "cell_lat": 48.9, "cropland_frac": 1, "ndvi_std": 0.036397936340743745, "peak_ndvi": 0.6100294160890668}}, {"type": "Feature", "geometry": {"geodesic": false, "type": "Polygon", "coordinates": [[[40.397701829894274, 49.19499736373571], [40.40112193971202, 49.19499736373571], [40.40112193971202, 49.19724664795928], [40.397701829894274, 49.19724664795928], [40.397701829894274, 49.19499736373571]]]}, "properties": {"id": "ROS1-16-0006", "tile": 16, "cell_id": "40.4_49.2", "cell_lon": 40.4, "cell_lat": 49.2, "cropland_frac": 1, "ndvi_std": 0.02602516456385607, "peak_ndvi": 0.6134110014360727}}, {"type": "Feature", "geometry": {"geodesic": false, "type": "Polygon", "coordinates": [[[40.95653633604743, 46.63659543456416], [40.95979138428719, 46.63659543456416], [40.95979138428719, 46.638844718786885], [40.95653633604743, 46.638844718786885], [40.95653633604743, 46.63659543456416]]]}, "properties": {"id": "ROS1-18-0009", "tile": 18, "cell_id": "41.0_46.6", "cell_lon": 41, "cell_lat": 46.6, "cropland_frac": 1, "ndvi_std": 0.018518873582942668, "peak_ndvi": 0.6073397086148203}}, {"type": "Feature", "geometry": {"geodesic": false, "type": "Polygon", "coordinates": [[[38.29840451634886, 47.19085596486572], [38.301693406426494, 47.19085596486572], [38.301693406426494, 47.19310524908863], [38.29840451634886, 47.19310524908863], [38.29840451634886, 47.19085596486572]]]}, "properties": {"id": "ROS1-01-0005", "tile": 1, "cell_id": "38.3_47.2", "cell_lon": 38.3, "cell_lat": 47.2, "cropland_frac": 0.9979934970480021, "ndvi_std": 0.06942747321796744, "peak_ndvi": 0.7482551445209887}}, {"type": "Feature", "geometry": {"geodesic": false, "type": "Polygon", "coordinates": [[[39.62252426633336, 47.092939598896734], [39.6258071043943, 47.092939598896734], [39.6258071043943, 47.09518888311961], [39.62252426633336, 47.09518888311961], [39.62252426633336, 47.092939598896734]]]}, "properties": {"id": "ROS1-07-0002", "tile": 7, "cell_id": "39.6_47.1", "cell_lon": 39.6, "cell_lat": 47.1, "cropland_frac": 1, "ndvi_std": 0.06034002217588523, "peak_ndvi": 0.6954895883724004}}, {"type": "Feature", "geometry": {"geodesic": false, "type": "Polygon", "coordinates": [[[40.236983983144, 46.69678255860015], [40.24024265780257, 46.69678255860015], [40.24024265780257, 46.6990318428229], [40.236983983144, 46.6990318428229], [40.236983983144, 46.69678255860015]]]}, "properties": {"id": "ROS1-13-0005", "tile": 13, "cell_id": "40.2_46.7", "cell_lon": 40.2, "cell_lat": 46.7, "cropland_frac": 0.9959022056410526, "ndvi_std": 0.04986039637100902, "peak_ndvi": 0.6999331861531103}}, {"type": "Feature", "geometry": {"geodesic": false, "type": "Polygon", "coordinates": [[[40.09590556481114, 48.06940831273433], [40.099250213755944, 48.06940831273433], [40.099250213755944, 48.07165759695752], [40.09590556481114, 48.07165759695752], [40.09590556481114, 48.06940831273433]]]}, "properties": {"id": "ROS1-14-0017", "tile": 14, "cell_id": "40.1_48.1", "cell_lon": 40.1, "cell_lat": 48.1, "cropland_frac": 0.9982334087639751, "ndvi_std": 0.07735166182411979, "peak_ndvi": 0.6856892710666603}}, {"type": "Feature", "geometry": {"geodesic": false, "type": "Polygon", "coordinates": [[[40.02761045840764, 48.76919591906321], [40.031001470768686, 48.76919591906321], [40.031001470768686, 48.77144520328663], [40.02761045840764, 48.77144520328663], [40.02761045840764, 48.76919591906321]]]}, "properties": {"id": "ROS1-15-0004", "tile": 15, "cell_id": "40.0_48.8", "cell_lon": 40, "cell_lat": 48.8, "cropland_frac": 0.9984443061605477, "ndvi_std": 0.06623637210394523, "peak_ndvi": 0.720996771701707}}, {"type": "Feature", "geometry": {"geodesic": false, "type": "Polygon", "coordinates": [[[40.19826334075792, 49.55342516209927], [40.20170848254471, 49.55342516209927], [40.20170848254471, 49.55567444632297], [40.19826334075792, 49.55567444632297], [40.19826334075792, 49.55342516209927]]]}, "properties": {"id": "ROS1-16-0004", "tile": 16, "cell_id": "40.2_49.6", "cell_lon": 40.2, "cell_lat": 49.6, "cropland_frac": 1, "ndvi_std": 0.0796700868278784, "peak_ndvi": 0.6585199187663959}}, {"type": "Feature", "geometry": {"geodesic": false, "type": "Polygon", "coordinates": [[[40.774177685566514, 46.65815500138302], [40.77743403148083, 46.65815500138302], [40.77743403148083, 46.66040428560575], [40.774177685566514, 46.66040428560575], [40.774177685566514, 46.65815500138302]]]}, "properties": {"id": "ROS1-18-0014", "tile": 18, "cell_id": "40.8_46.7", "cell_lon": 40.8, "cell_lat": 46.7, "cropland_frac": 1, "ndvi_std": 0.04862245607390882, "peak_ndvi": 0.6558910890007723}}, {"type": "Feature", "geometry": {"geodesic": false, "type": "Polygon", "coordinates": [[[41.030193122045254, 46.804580392694454], [41.033458321039966, 46.804580392694454], [41.033458321039966, 46.80682967691723], [41.030193122045254, 46.80682967691723], [41.030193122045254, 46.804580392694454]]]}, "properties": {"id": "ROS1-19-0018", "tile": 19, "cell_id": "41.0_46.8", "cell_lon": 41, "cell_lat": 46.8, "cropland_frac": 1, "ndvi_std": 0.056086699590855285, "peak_ndvi": 0.675014918560075}}, {"type": "Feature", "geometry": {"geodesic": false, "type": "Polygon", "coordinates": [[[38.27055752014755, 47.16570313691039], [38.27384485253326, 47.16570313691039], [38.27384485253326, 47.16795242113327], [38.27055752014755, 47.16795242113327], [38.27055752014755, 47.16570313691039]]]}, "properties": {"id": "ROS1-01-0004", "tile": 1, "cell_id": "38.3_47.2", "cell_lon": 38.3, "cell_lat": 47.2, "cropland_frac": 1, "ndvi_std": 0.01165261482312824, "peak_ndvi": 0.8687571620315111}}]}