{"type": "FeatureCollection", "features": [{"type": "Feature", "geometry": {"geodesic": false, "type": "Polygon", "coordinates": [[[38.86433848552554, 47.34087461731363], [38.867636710096775, 47.34087461731363], [38.867636710096775, 47.34312390153659], [38.86433848552554, 47.34312390153659], [38.86433848552554, 47.34087461731363]]]}, "properties": {"id": "ROS1-01-0015", "tile": 1, "cell_id": "38.9_47.3", "cell_lon": 38.9, "cell_lat": 47.3, "cropland_frac": 0.9853821873400445, "ndvi_std": 0.014825631357029502, "peak_ndvi": 0.30728378117744565}}, {"type": "Feature", "geometry": {"geodesic": false, "type": "Polygon", "coordinates": [[[38.87152107219263, 47.46663875709032], [38.87482718052313, 47.46663875709032], [38.87482718052313, 47.46888804131331], [38.87152107219263, 47.46888804131331], [38.87152107219263, 47.46663875709032]]]}, "properties": {"id": "ROS1-02-0005", "tile": 2, "cell_id": "38.9_47.5", "cell_lon": 38.9, "cell_lat": 47.5, "cropland_frac": 0.9744799822972697, "ndvi_std": 0.0299294077797438, "peak_ndvi": 0.32344341974733704}}, {"type": "Feature", "geometry": {"geodesic": false, "type": "Polygon", "coordinates": [[[39.35122531348335, 47.34267124788187], [39.35452365030317, 47.34267124788187], [39.35452365030317, 47.34492053210482], [39.35122531348335, 47.34492053210482], [39.35122531348335, 47.34267124788187]]]}, "properties": {"id": "ROS1-07-0045", "tile": 7, "cell_id": "39.4_47.3", "cell_lon": 39.4, "cell_lat": 47.3, "cropland_frac": 1, "ndvi_std": 0.004121208321644851, "peak_ndvi": 0.2799217646384164}}, {"type": "Feature", "geometry": {"geodesic": false, "type": "Polygon", "coordinates": [[[39.56680834893066, 47.743319864599044], [39.57013199150948, 47.743319864599044], [39.57013199150948, 47.745569148822135], [39.56680834893066, 47.745569148822135], [39.56680834893066, 47.743319864599044]]]}, "properties": {"id": "ROS1-08-0010", "tile": 8, "cell_id": "39.6_47.7", "cell_lon": 39.6, "cell_lat": 47.7, "cropland_frac": 0.9600411440762263, "ndvi_std": 0.03755320511477601, "peak_ndvi": 0.26552042467928877}}, {"type": "Feature", "geometry": {"geodesic": false, "type": "Polygon", "coordinates": [[[40.30346015250548, 46.66893478479244], [40.30671714781813, 46.66893478479244], [40.30671714781813, 46.671184069015176], [40.30346015250548, 46.671184069015176], [40.30346015250548, 46.66893478479244]]]}, "properties": {"id": "ROS1-12-0000", "tile": 12, "cell_id": "40.3_46.7", "cell_lon": 40.3, "cell_lat": 46.7, "cropland_frac": 1, "ndvi_std": 0.013284340025076209, "peak_ndvi": 0.27421228771382494}}, {"type": "Feature", "geometry": {"geodesic": false, "type": "Polygon", "coordinates": [[[38.96137465355525, 46.750681475647305], [38.964636585676175, 46.750681475647305], [38.964636585676175, 46.75293075987007], [38.96137465355525, 46.75293075987007], [38.96137465355525, 46.750681475647305]]]}, "properties": {"id": "ROS1-01-0003", "tile": 1, "cell_id": "39.0_46.8", "cell_lon": 39, "cell_lat": 46.8, "cropland_frac": 1, "ndvi_std": 0.014642580761469152, "peak_ndvi": 0.40411118424842035}}, {"type": "Feature", "geometry": {"geodesic": false, "type": "Polygon", "coordinates": [[[39.14640928859293, 47.34716282430247], [39.14970790608185, 47.34716282430247], [39.14970790608185, 47.34941210852542], [39.14640928859293, 47.34941210852542], [39.14640928859293, 47.34716282430247]]]}, "properties": {"id": "ROS1-07-0012", "tile": 7, "cell_id": "39.1_47.3", "cell_lon": 39.1, "cell_lat": 47.3, "cropland_frac": 1, "ndvi_std": 0.05766629615433273, "peak_ndvi": 0.3505187716297959}}, {"type": "Feature", "geometry": {"geodesic": false, "type": "Polygon", "coordinates": [[[39.95844398564319, 48.656008193264185], [39.96182737764938, 48.656008193264185], [39.96182737764938, 48.65825747748757], [39.95844398564319, 48.65825747748757], [39.95844398564319, 48.656008193264185]]]}, "properties": {"id": "ROS1-15-0009", "tile": 15, "cell_id": "40.0_48.7", "cell_lon": 40, "cell_lat": 48.7, "cropland_frac": 0.9802205387065388, "ndvi_std": 0.04802584744678995, "peak_ndvi": 0.36740696029636305}}, {"type": "Feature", "geometry": {"geodesic": false, "type": "Polygon", "coordinates": [[[40.9242012855042, 46.492864989105065], [40.927447720666166, 46.492864989105065], [40.927447720666166, 46.49511427332776], [40.9242012855042, 46.49511427332776], [40.9242012855042, 46.492864989105065]]]}, "properties": {"id": "ROS1-18-0029", "tile": 18, "cell_id": "40.9_46.5", "cell_lon": 40.9, "cell_lat": 46.5, "cropland_frac": 1, "ndvi_std": 0.008410808118864853, "peak_ndvi": 0.40734980417993194}}, {"type": "Feature", "geometry": {"geodesic": false, "type": "Polygon", "coordinates": [[[41.00772096247744, 47.269907709868214], [41.01101476192039, 47.269907709868214], [41.01101476192039, 47.27215699409115], [41.00772096247744, 47.27215699409115], [41.00772096247744, 47.269907709868214]]]}, "properties": {"id": "ROS1-19-0041", "tile": 19, "cell_id": "41.0_47.3", "cell_lon": 41, "cell_lat": 47.3, "cropland_frac": 0.9586613752771358, "ndvi_std": 0.034478558597565434, "peak_ndvi": 0.3998056491670308}}, {"type": "Feature", "geometry": {"geodesic": false, "type": "Polygon", "coordinates": [[[40.6950845056643, 47.987661621879475], [40.69842385348078, 47.987661621879475], [40.69842385348078, 47.989910906102644], [40.6950845056643, 47.989910906102644], [40.6950845056643, 47.987661621879475]]]}, "properties": {"id": "ROS1-20-0023", "tile": 20, "cell_id": "40.7_48.0", "cell_lon": 40.7, "cell_lat": 48, "cropland_frac": 1, "ndvi_std": 0.04654516536892122, "peak_ndvi": 0.4012936600217742}}, {"type": "Feature", "geometry": {"geodesic": false, "type": "Polygon", "coordinates": [[[40.78129138374471, 48.934485931341136], [40.78469361003362, 48.934485931341136], [40.78469361003362, 48.93673521556462], [40.78129138374471, 48.93673521556462], [40.78129138374471, 48.934485931341136]]]}, "properties": {"id": "ROS1-21-0016", "tile": 21, "cell_id": "40.8_48.9", "cell_lon": 40.8, "cell_lat": 48.9, "cropland_frac": 1, "ndvi_std": 0.014857300912443982, "peak_ndvi": 0.3622739643803468}}, {"type": "Feature", "geometry": {"geodesic": false, "type": "Polygon", "coordinates": [[[40.5243620172915, 49.26057437947642], [40.52778666966717, 49.26057437947642], [40.52778666966717, 49.262823663700004], [40.5243620172915, 49.262823663700004], [40.5243620172915, 49.26057437947642]]]}, "properties": {"id": "ROS1-22-0016", "tile": 22, "cell_id": "40.5_49.3", "cell_lon": 40.5, "cell_lat": 49.3, "cropland_frac": 1, "ndvi_std": 0.03003434852961684, "peak_ndvi": 0.4029102231504838}}, {"type": "Feature", "geometry": {"geodesic": false, "type": "Polygon", "coordinates": [[[41.67070050973544, 46.51891613234453], [41.67394850111828, 46.51891613234453], [41.67394850111828, 46.52116541656722], [41.67070050973544, 46.52116541656722], [41.67070050973544, 46.51891613234453]]]}, "properties": {"id": "ROS1-24-0003", "tile": 24, "cell_id": "41.7_46.5", "cell_lon": 41.7, "cell_lat": 46.5, "cropland_frac": 0.9829792580013519, "ndvi_std": 0.05020942640022954, "peak_ndvi": 0.3662317104909331}}, {"type": "Feature", "geometry": {"geodesic": false, "type": "Polygon", "coordinates": [[[41.24218556135652, 47.13066884082974], [41.24547072761158, 47.13066884082974], [41.24547072761158, 47.13291812505262], [41.24218556135652, 47.13291812505262], [41.24218556135652, 47.13066884082974]]]}, "properties": {"id": "ROS1-25-0017", "tile": 25, "cell_id": "41.2_47.1", "cell_lon": 41.2, "cell_lat": 47.1, "cropland_frac": 1, "ndvi_std": 0.07897563040828304, "peak_ndvi": 0.4276812280492867}}, {"type": "Feature", "geometry": {"geodesic": false, "type": "Polygon", "coordinates": [[[41.58263061734387, 47.656183282039486], [41.58594870939048, 47.656183282039486], [41.58594870939048, 47.65843256626253], [41.58263061734387, 47.65843256626253], [41.58263061734387, 47.656183282039486]]]}, "properties": {"id": "ROS1-26-0027", "tile": 26, "cell_id": "41.6_47.7", "cell_lon": 41.6, "cell_lat": 47.7, "cropland_frac": 1, "ndvi_std": 0.04796213027535966, "peak_ndvi": 0.4059346425476943}}, {"type": "Feature", "geometry": {"geodesic": false, "type": "Polygon", "coordinates": [[[41.26369966454982, 48.54910867445399], [41.26707590300787, 48.54910867445399], [41.26707590300787, 48.551357958677336], [41.26369966454982, 48.551357958677336], [41.26369966454982, 48.54910867445399]]]}, "properties": {"id": "ROS1-27-0006", "tile": 27, "cell_id": "41.3_48.6", "cell_lon": 41.3, "cell_lat": 48.6, "cropland_frac": 0.9807998399986667, "ndvi_std": 0.050961160904268, "peak_ndvi": 0.38680391522767243}}, {"type": "Feature", "geometry": {"geodesic": false, "type": "Polygon", "coordinates": [[[41.88349929279351, 49.653138158636516], [41.88695148775284, 49.653138158636516], [41.88695148775284, 49.655387442860246], [41.88349929279351, 49.655387442860246], [41.88349929279351, 49.653138158636516]]]}, "properties": {"id": "ROS1-28-0006", "tile": 28, "cell_id": "41.9_49.7", "cell_lon": 41.9, "cell_lat": 49.7, "cropland_frac": 1, "ndvi_std": 0.04745583192972138, "peak_ndvi": 0.3989849743455924}}, {"type": "Feature", "geometry": {"geodesic": false, "type": "Polygon", "coordinates": [[[41.288796573505415, 50.15439808717502], [41.29228482826827, 50.15439808717502], [41.29228482826827, 50.15664737139893], [41.288796573505415, 50.15664737139893], [41.288796573505415, 50.15439808717502]]]}, "properties": {"id": "ROS1-29-0006", "tile": 29, "cell_id": "41.3_50.2", "cell_lon": 41.3, "cell_lat": 50.2, "cropland_frac": 0.9948454647753259, "ndvi_std": 0.027324019812830374, "peak_ndvi": 0.38796835856777256}}, {"type": "Feature", "geometry": {"geodesic": false, "type": "Polygon", "coordinates": [[[42.01116627519143, 46.37518568688545], [42.014405707403164, 46.37518568688545], [42.014405707403164, 46.3774349711081], [42.01116627519143, 46.3774349711081], [42.01116627519143, 46.37518568688545]]]}, "properties": {"id": "ROS1-30-0009", "tile": 30, "cell_id": "42.0_46.4", "cell_lon": 42, "cell_lat": 46.4, "cropland_frac": 1, "ndvi_std": 0.07145748028433506, "peak_ndvi": 0.3740161093757424}}, {"type": "Feature", "geometry": {"geodesic": false, "type": "Polygon", "coordinates": [[[42.46029596696637, 47.29595885310768], [42.46359138885621, 47.29595885310768], [42.46359138885621, 47.29820813733062], [42.46029596696637, 47.29820813733062], [42.46029596696637, 47.29595885310768]]]}, "properties": {"id": "ROS1-31-0009", "tile": 31, "cell_id": "42.5_47.3", "cell_lon": 42.5, "cell_lat": 47.3, "cropland_frac": 1, "ndvi_std": 0.008238860069888995, "peak_ndvi": 0.3972889536369945}}, {"type": "Feature", "geometry": {"geodesic": false, "type": "Polygon", "coordinates": [[[42.224020042623984, 47.89693177818343], [42.22735353434322, 47.89693177818343], [42.22735353434322, 47.89918106240657], [42.224020042623984, 47.89918106240657], [42.224020042623984, 47.89693177818343]]]}, "properties": {"id": "ROS1-32-0018", "tile": 32, "cell_id": "42.2_47.9", "cell_lon": 42.2, "cell_lat": 47.9, "cropland_frac": 1, "ndvi_std": 0.05329353416507086, "peak_ndvi": 0.41327198874793414}}, {"type": "Feature", "geometry": {"geodesic": false, "type": "Polygon", "coordinates": [[[42.10002620676199, 48.69822901161779], [42.10341243572807, 48.69822901161779], [42.10341243572807, 48.70047829584118], [42.10002620676199, 48.70047829584118], [42.10002620676199, 48.69822901161779]]]}, "properties": {"id": "ROS1-33-0014", "tile": 33, "cell_id": "42.1_48.7", "cell_lon": 42.1, "cell_lat": 48.7, "cropland_frac": 1, "ndvi_std": 0.05492015236524895, "peak_ndvi": 0.4313233719845859}}, {"type": "Feature", "geometry": {"geodesic": false, "type": "Polygon", "coordinates": [[[43.06846034003465, 47.13695704781857], [43.071745894781714, 47.13695704781857], [43.071745894781714, 47.139206332041454], [43.06846034003465, 47.139206332041454], [43.06846034003465, 47.13695704781857]]]}, "properties": {"id": "ROS1-37-0049", "tile": 37, "cell_id": "43.1_47.1", "cell_lon": 43.1, "cell_lat": 47.1, "cropland_frac": 1, "ndvi_std": 0.06151224562288272, "peak_ndvi": 0.41325481359202804}}, {"type": "Feature", "geometry": {"geodesic": false, "type": "Polygon", "coordinates": [[[43.684723376731405, 46.518916132344536], [43.68797136811425, 46.518916132344536], [43.68797136811425, 46.52116541656722], [43.684723376731405, 46.52116541656722], [43.684723376731405, 46.518916132344536]]]}, "properties": {"id": "ROS1-42-0006", "tile": 42, "cell_id": "43.7_46.5", "cell_lon": 43.7, "cell_lat": 46.5, "cropland_frac": 1, "ndvi_std": 0.02040864937817131, "peak_ndvi": 0.3731584783920983}}, {"type": "Feature", "geometry": {"geodesic": false, "type": "Polygon", "coordinates": [[[44.24884927736276, 47.05071878054313], [44.25212951565833, 47.05071878054313], [44.25212951565833, 47.05296806476599], [44.24884927736276, 47.05296806476599], [44.24884927736276, 47.05071878054313]]]}, "properties": {"id": "ROS1-49-0004", "tile": 49, "cell_id": "44.3_47.1", "cell_lon": 44.3, "cell_lat": 47.1, "cropland_frac": 0.9998412963939968, "ndvi_std": 0.049792950832313304, "peak_ndvi": 0.3749488169441086}}, {"type": "Feature", "geometry": {"geodesic": false, "type": "Polygon", "coordinates": [[[39.08803179112888, 46.92585295605055], [39.09130437517697, 46.92585295605055], [39.09130437517697, 46.92810224027336], [39.08803179112888, 46.92810224027336], [39.08803179112888, 46.92585295605055]]]}, "properties": {"id": "ROS1-07-0011", "tile": 7, "cell_id": "39.1_46.9", "cell_lon": 39.1, "cell_lat": 46.9, "cropland_frac": 1, "ndvi_std": 0.009001635779417547, "peak_ndvi": 0.46937548753545766}}, {"type": "Feature", "geometry": {"geodesic": false, "type": "Polygon", "coordinates": [[[40.2297978666737, 46.68330782933835], [40.233055728433236, 46.68330782933835], [40.233055728433236, 46.685557113561096], [40.2297978666737, 46.685557113561096], [40.2297978666737, 46.68330782933835]]]}, "properties": {"id": "ROS1-12-0004", "tile": 12, "cell_id": "40.2_46.7", "cell_lon": 40.2, "cell_lat": 46.7, "cropland_frac": 1, "ndvi_std": 0.06655644912540808, "peak_ndvi": 0.4716092815865518}}, {"type": "Feature", "geometry": {"geodesic": false, "type": "Polygon", "coordinates": [[[40.315075273816305, 48.652414932127705], [40.31845842468338, 48.652414932127705], [40.31845842468338, 48.65466421635109], [40.315075273816305, 48.65466421635109], [40.315075273816305, 48.652414932127705]]]}, "properties": {"id": "ROS1-15-0016", "tile": 15, "cell_id": "40.3_48.7", "cell_lon": 40.3, "cell_lat": 48.7, "cropland_frac": 1, "ndvi_std": 0.02878509690752724, "peak_ndvi": 0.47857791997233323}}, {"type": "Feature", "geometry": {"geodesic": false, "type": "Polygon", "coordinates": [[[40.88737714373109, 46.263794591654666], [40.89060998751118, 46.263794591654666], [40.89060998751118, 46.26604387587728], [40.88737714373109, 46.26604387587728], [40.88737714373109, 46.263794591654666]]]}, "properties": {"id": "ROS1-18-0007", "tile": 18, "cell_id": "40.9_46.3", "cell_lon": 40.9, "cell_lat": 46.3, "cropland_frac": 1, "ndvi_std": 0.017975403064687923, "peak_ndvi": 0.5308039843907961}}, {"type": "Feature", "geometry": {"geodesic": false, "type": "Polygon", "coordinates": [[[40.766969977061514, 47.34985777015482], [40.77026876298456, 47.34985777015482], [40.77026876298456, 47.35210705437778], [40.766969977061514, 47.35210705437778], [40.766969977061514, 47.34985777015482]]]}, "properties": {"id": "ROS1-19-0026", "tile": 19, "cell_id": "40.8_47.4", "cell_lon": 40.8, "cell_lat": 47.4, "cropland_frac": 1, "ndvi_std": 0.051295670688399894, "peak_ndvi": 0.5379205866606485}}, {"type": "Feature", "geometry": {"geodesic": false, "type": "Polygon", "coordinates": [[[41.10382720140327, 47.69930241567721], [41.10714803682597, 47.69930241567721], [41.10714803682597, 47.70155169990028], [41.10382720140327, 47.70155169990028], [41.10382720140327, 47.69930241567721]]]}, "properties": {"id": "ROS1-20-0010", "tile": 20, "cell_id": "41.1_47.7", "cell_lon": 41.1, "cell_lat": 47.7, "cropland_frac": 1, "ndvi_std": 0.04540007258750038, "peak_ndvi": 0.46425590683991746}}, {"type": "Feature", "geometry": {"geodesic": false, "type": "Polygon", "coordinates": [[[40.73369897921049, 48.38831023859665], [40.737064536084475, 48.38831023859665], [40.737064536084475, 48.39055952281995], [40.73369897921049, 48.39055952281995], [40.73369897921049, 48.38831023859665]]]}, "properties": {"id": "ROS1-21-0013", "tile": 21, "cell_id": "40.7_48.4", "cell_lon": 40.7, "cell_lat": 48.4, "cropland_frac": 1, "ndvi_std": 0.056616157004027265, "peak_ndvi": 0.48848952553311453}}, {"type": "Feature", "geometry": {"geodesic": false, "type": "Polygon", "coordinates": [[[40.91961335439335, 49.47257678652854], [40.9230528061479, 49.47257678652854], [40.9230528061479, 49.47482607075221], [40.91961335439335, 49.47482607075221], [40.91961335439335, 49.47257678652854]]]}, "properties": {"id": "ROS1-22-0011", "tile": 22, "cell_id": "40.9_49.5", "cell_lon": 40.9, "cell_lat": 49.5, "cropland_frac": 1, "ndvi_std": 0.01931228711132573, "peak_ndvi": 0.46539752733412537}}, {"type": "Feature", "geometry": {"geodesic": false, "type": "Polygon", "coordinates": [[[41.88719748758595, 46.418304820523176], [41.89043948066723, 46.418304820523176], [41.89043948066723, 46.420554104745825], [41.88719748758595, 46.420554104745825], [41.88719748758595, 46.418304820523176]]]}, "properties": {"id": "ROS1-24-0026", "tile": 24, "cell_id": "41.9_46.4", "cell_lon": 41.9, "cell_lat": 46.4, "cropland_frac": 0.9965235883859209, "ndvi_std": 0.06988906953747251, "peak_ndvi": 0.4619256573151723}}, {"type": "Feature", "geometry": {"geodesic": false, "type": "Polygon", "coordinates": [[[41.71381129818597, 46.796495555137376], [41.71707600654828, 46.796495555137376], [41.71707600654828, 46.798744839360154], [41.71381129818597, 46.798744839360154], [41.71381129818597, 46.796495555137376]]]}, "properties": {"id": "ROS1-25-0008", "tile": 25, "cell_id": "41.7_46.8", "cell_lon": 41.7, "cell_lat": 46.8, "cropland_frac": 1, "ndvi_std": 0.004531191942303033, "peak_ndvi": 0.5165072826138724}}, {"type": "Feature", "geometry": {"geodesic": false, "type": "Polygon", "coordinates": [[[41.4586462844072, 48.179002777396875], [41.46199807754949, 48.179002777396875], [41.46199807754949, 48.18125206162009], [41.4586462844072, 48.18125206162009], [41.4586462844072, 48.179002777396875]]]}, "properties": {"id": "ROS1-26-0031", "tile": 26, "cell_id": "41.5_48.2", "cell_lon": 41.5, "cell_lat": 48.2, "cropland_frac": 1, "ndvi_std": 0.05738838881388128, "peak_ndvi": 0.5449617907311006}}, {"type": "Feature", "geometry": {"geodesic": false, "type": "Polygon", "coordinates": [[[41.643698235208454, 48.20954549705692], [41.64705202698664, 48.20954549705692], [41.64705202698664, 48.211794781280155], [41.643698235208454, 48.211794781280155], [41.643698235208454, 48.20954549705692]]]}, "properties": {"id": "ROS1-27-0009", "tile": 27, "cell_id": "41.6_48.2", "cell_lon": 41.6, "cell_lat": 48.2, "cropland_frac": 1, "ndvi_std": 0.05074568609941456, "peak_ndvi": 0.4842982761543238}}, {"type": "Feature", "geometry": {"geodesic": false, "type": "Polygon", "coordinates": [[[41.490953573791785, 49.135708554983836], [41.49436959084676, 49.135708554983836], [41.49436959084676, 49.13795783920738], [41.490953573791785, 49.13795783920738], [41.490953573791785, 49.135708554983836]]]}, "properties": {"id": "ROS1-28-0017", "tile": 28, "cell_id": "41.5_49.1", "cell_lon": 41.5, "cell_lat": 49.1, "cropland_frac": 1, "ndvi_std": 0.05823334376439857, "peak_ndvi": 0.502560816174031}}, {"type": "Feature", "geometry": {"geodesic": false, "type": "Polygon", "coordinates": [[[42.28334744390372, 46.65546005553066], [42.286603627526915, 46.65546005553066], [42.286603627526915, 46.65770933975339], [42.28334744390372, 46.65770933975339], [42.28334744390372, 46.65546005553066]]]}, "properties": {"id": "ROS1-30-0001", "tile": 30, "cell_id": "42.3_46.7", "cell_lon": 42.3, "cell_lat": 46.7, "cropland_frac": 0.9944909175754852, "ndvi_std": 0.0713801485229861, "peak_ndvi": 0.5330780167635143}}, {"type": "Feature", "geometry": {"geodesic": false, "type": "Polygon", "coordinates": [[[42.19798776424494, 47.30045042952827], [42.20128346609743, 47.30045042952827], [42.20128346609743, 47.30269971375121], [42.19798776424494, 47.30269971375121], [42.19798776424494, 47.30045042952827]]]}, "properties": {"id": "ROS1-31-0024", "tile": 31, "cell_id": "42.2_47.3", "cell_lon": 42.2, "cell_lat": 47.3, "cropland_frac": 1, "ndvi_std": 0.012175002579945358, "peak_ndvi": 0.5222292043758103}}, {"type": "Feature", "geometry": {"geodesic": false, "type": "Polygon", "coordinates": [[[42.040769299586415, 47.722658613064304], [42.04409162368555, 47.722658613064304], [42.04409162368555, 47.72490789728738], [42.040769299586415, 47.72490789728738], [42.040769299586415, 47.722658613064304]]]}, "properties": {"id": "ROS1-32-0022", "tile": 32, "cell_id": "42.0_47.7", "cell_lon": 42, "cell_lat": 47.7, "cropland_frac": 1, "ndvi_std": 0.013968061110506367, "peak_ndvi": 0.5173399624628596}}, {"type": "Feature", "geometry": {"geodesic": false, "type": "Polygon", "coordinates": [[[42.259927020791395, 48.67756776008304], [42.26331186063413, 48.67756776008304], [42.26331186063413, 48.67981704430644], [42.259927020791395, 48.67981704430644], [42.259927020791395, 48.67756776008304]]]}, "properties": {"id": "ROS1-33-0018", "tile": 33, "cell_id": "42.3_48.7", "cell_lon": 42.3, "cell_lat": 48.7, "cropland_frac": 1, "ndvi_std": 0.030976680661442494, "peak_ndvi": 0.5438674862106112}}, {"type": "Feature", "geometry": {"geodesic": false, "type": "Polygon", "coordinates": [[[43.21759985774186, 46.50454308779864], [43.22084699025261, 46.50454308779864], [43.22084699025261, 46.50679237202132], [43.21759985774186, 46.50679237202132], [43.21759985774186, 46.50454308779864]]]}, "properties": {"id": "ROS1-36-0022", "tile": 36, "cell_id": "43.2_46.5", "cell_lon": 43.2, "cell_lat": 46.5, "cropland_frac": 1, "ndvi_std": 0.02118472554259658, "peak_ndvi": 0.5216921821341843}}, {"type": "Feature", "geometry": {"geodesic": false, "type": "Polygon", "coordinates": [[[42.925637254421105, 46.841411319343344], [42.92890469120996, 46.841411319343344], [42.92890469120996, 46.843660603566136], [42.925637254421105, 46.843660603566136], [42.925637254421105, 46.841411319343344]]]}, "properties": {"id": "ROS1-37-0025", "tile": 37, "cell_id": "42.9_46.8", "cell_lon": 42.9, "cell_lat": 46.8, "cropland_frac": 1, "ndvi_std": 0.024563567725031807, "peak_ndvi": 0.46660147058563284}}, {"type": "Feature", "geometry": {"geodesic": false, "type": "Polygon", "coordinates": [[[43.127738239225444, 47.48730000862507], [43.131045647876505, 47.48730000862507], [43.131045647876505, 47.489549292848075], [43.127738239225444, 47.489549292848075], [43.127738239225444, 47.48730000862507]]]}, "properties": {"id": "ROS1-38-0002", "tile": 38, "cell_id": "43.1_47.5", "cell_lon": 43.1, "cell_lat": 47.5, "cropland_frac": 1, "ndvi_std": 0.057367270329047954, "peak_ndvi": 0.5180090045983923}}, {"type": "Feature", "geometry": {"geodesic": false, "type": "Polygon", "coordinates": [[[43.539192885785944, 46.63300217342768], [43.54244771789196, 46.63300217342768], [43.54244771789196, 46.6352514576504], [43.539192885785944, 46.6352514576504], [43.539192885785944, 46.63300217342768]]]}, "properties": {"id": "ROS1-42-0008", "tile": 42, "cell_id": "43.5_46.6", "cell_lon": 43.5, "cell_lat": 46.6, "cropland_frac": 1, "ndvi_std": 0.03861241533846681, "peak_ndvi": 0.527846196984328}}, {"type": "Feature", "geometry": {"geodesic": false, "type": "Polygon", "coordinates": [[[43.95510763269607, 46.80637702326269], [43.95837294074904, 46.80637702326269], [43.95837294074904, 46.80862630748547], [43.95510763269607, 46.80862630748547], [43.95510763269607, 46.80637702326269]]]}, "properties": {"id": "ROS1-43-0019", "tile": 43, "cell_id": "44.0_46.8", "cell_lon": 44, "cell_lat": 46.8, "cropland_frac": 1, "ndvi_std": 0.05386427970517858, "peak_ndvi": 0.4634175910072323}}, {"type": "Feature", "geometry": {"geodesic": false, "type": "Polygon", "coordinates": [[[44.23358299745058, 46.88453045298107], [44.23685305971502, 46.88453045298107], [44.23685305971502, 46.88677973720387], [44.23358299745058, 46.88677973720387], [44.23358299745058, 46.88453045298107]]]}, "properties": {"id": "ROS1-49-0007", "tile": 49, "cell_id": "44.2_46.9", "cell_lon": 44.2, "cell_lat": 46.9, "cropland_frac": 1, "ndvi_std": 0.02026853605167211, "peak_ndvi": 0.4647165535671284}}, {"type": "Feature", "geometry": {"geodesic": false, "type": "Polygon", "coordinates": [[[40.32854029714203, 48.939875823045845], [40.33194289082865, 48.939875823045845], [40.33194289082865, 48.94212510726933], [40.32854029714203, 48.94212510726933], [40.32854029714203, 48.939875823045845]]]}, "properties": {"id": "ROS1-15-0014", "tile": 15, "cell_id": "40.3_48.9", "cell_lon": 40.3, "cell_lat": 48.9, "cropland_frac": 1, "ndvi_std": 0.06800000753976451, "peak_ndvi": 0.5321730719497234}}, {"type": "Feature", "geometry": {"geodesic": false, "type": "Polygon", "coordinates": [[[40.73733015134366, 47.20253406355928], [40.74061976535288, 47.20253406355928], [40.74061976535288, 47.20478334778218], [40.73733015134366, 47.20478334778218], [40.73733015134366, 47.20253406355928]]]}, "properties": {"id": "ROS1-19-0022", "tile": 19, "cell_id": "40.7_47.2", "cell_lon": 40.7, "cell_lat": 47.2, "cropland_frac": 1, "ndvi_std": 0.032070734913481495, "peak_ndvi": 0.4734490206658505}}, {"type": "Feature", "geometry": {"geodesic": false, "type": "Polygon", "coordinates": [[[40.7480864985609, 47.94454248824176], [40.751423059674885, 47.94454248824176], [40.751423059674885, 47.9467917724649], [40.7480864985609, 47.9467917724649], [40.7480864985609, 47.94454248824176]]]}, "properties": {"id": "ROS1-20-0007", "tile": 20, "cell_id": "40.7_47.9", "cell_lon": 40.7, "cell_lat": 47.9, "cropland_frac": 0.9772882528062882, "ndvi_std": 0.0339485549746447, "peak_ndvi": 0.5202575476751163}}, {"type": "Feature", "geometry": {"geodesic": false, "type": "Polygon", "coordinates": [[[41.112788562719494, 48.37214056348252], [41.116153050671016, 48.37214056348252], [41.116153050671016, 48.37438984770581], [41.112788562719494, 48.37438984770581], [41.112788562719494, 48.37214056348252]]]}, "properties": {"id": "ROS1-21-0034", "tile": 21, "cell_id": "41.1_48.4", "cell_lon": 41.1, "cell_lat": 48.4, "cropland_frac": 1, "ndvi_std": 0.02024734311562987, "peak_ndvi": 0.475834085499728}}, {"type": "Feature", "geometry": {"geodesic": false, "type": "Polygon", "coordinates": [[[41.20347325345193, 49.691765715853634], [41.20692819130365, 49.691765715853634], [41.20692819130365, 49.69401500007738], [41.20347325345193, 49.69401500007738], [41.20347325345193, 49.691765715853634]]]}, "properties": {"id": "ROS1-22-0032", "tile": 22, "cell_id": "41.2_49.7", "cell_lon": 41.2, "cell_lat": 49.7, "cropland_frac": 1, "ndvi_std": 0.03577918160807666, "peak_ndvi": 0.5217949754412163}}, {"type": "Feature", "geometry": {"geodesic": false, "type": "Polygon", "coordinates": [[[41.9662347554178, 46.89980181281109], [41.969505748994685, 46.89980181281109], [41.969505748994685, 46.902051097033905], [41.9662347554178, 46.902051097033905], [41.9662347554178, 46.89980181281109]]]}, "properties": {"id": "ROS1-25-0016", "tile": 25, "cell_id": "42.0_46.9", "cell_lon": 42, "cell_lat": 46.9, "cropland_frac": 1, "ndvi_std": 0.06859142111607198, "peak_ndvi": 0.5329063180128946}}, {"type": "Feature", "geometry": {"geodesic": false, "type": "Polygon", "coordinates": [[[41.27629782196214, 47.884355364205774], [41.279630504224535, 47.884355364205774], [41.279630504224535, 47.8866046484289], [41.27629782196214, 47.8866046484289], [41.27629782196214, 47.884355364205774]]]}, "properties": {"id": "ROS1-26-0006", "tile": 26, "cell_id": "41.3_47.9", "cell_lon": 41.3, "cell_lat": 47.9, "cropland_frac": 0.990421876451071, "ndvi_std": 0.078510254058107, "peak_ndvi": 0.48950835224064454}}, {"type": "Feature", "geometry": {"geodesic": false, "type": "Polygon", "coordinates": [[[41.244832945490046, 48.61199074434234], [41.248213386824276, 48.61199074434234], [41.248213386824276, 48.61424002856571], [41.244832945490046, 48.61424002856571], [41.244832945490046, 48.61199074434234]]]}, "properties": {"id": "ROS1-27-0004", "tile": 27, "cell_id": "41.2_48.6", "cell_lon": 41.2, "cell_lat": 48.6, "cropland_frac": 1, "ndvi_std": 0.07410396324532666, "peak_ndvi": 0.5454125834289814}}, {"type": "Feature", "geometry": {"geodesic": false, "type": "Polygon", "coordinates": [[[41.23582737989479, 49.270455847601724], [41.23925271820107, 49.270455847601724], [41.23925271820107, 49.272705131825326], [41.23582737989479, 49.272705131825326], [41.23582737989479, 49.270455847601724]]]}, "properties": {"id": "ROS1-28-0029", "tile": 28, "cell_id": "41.2_49.3", "cell_lon": 41.2, "cell_lat": 49.3, "cropland_frac": 1, "ndvi_std": 0.03266709443483195, "peak_ndvi": 0.45476424766468937}}, {"type": "Feature", "geometry": {"geodesic": false, "type": "Polygon", "coordinates": [[[42.63638472913845, 46.676121307065394], [42.6396421575913, 46.676121307065394], [42.6396421575913, 46.67837059128813], [42.63638472913845, 46.67837059128813], [42.63638472913845, 46.676121307065394]]]}, "properties": {"id": "ROS1-30-0006", "tile": 30, "cell_id": "42.6_46.7", "cell_lon": 42.6, "cell_lat": 46.7, "cropland_frac": 1, "ndvi_std": 0.05226533141285355, "peak_ndvi": 0.4755302560204993}}, {"type": "Feature", "geometry": {"geodesic": false, "type": "Polygon", "coordinates": [[[42.71452555719999, 47.090244653044365], [42.71780822914208, 47.090244653044365], [42.71780822914208, 47.092493937267236], [42.71452555719999, 47.092493937267236], [42.71452555719999, 47.090244653044365]]]}, "properties": {"id": "ROS1-31-0038", "tile": 31, "cell_id": "42.7_47.1", "cell_lon": 42.7, "cell_lat": 47.1, "cropland_frac": 1, "ndvi_std": 0.019891626118823537, "peak_ndvi": 0.48261801120970343}}, {"type": "Feature", "geometry": {"geodesic": false, "type": "Polygon", "coordinates": [[[42.565352074178904, 48.7413481452555], [42.56874120728151, 48.7413481452555], [42.56874120728151, 48.74359742947892], [42.565352074178904, 48.74359742947892], [42.565352074178904, 48.7413481452555]]]}, "properties": {"id": "ROS1-33-0010", "tile": 33, "cell_id": "42.6_48.7", "cell_lon": 42.6, "cell_lat": 48.7, "cropland_frac": 0.9986592058181335, "ndvi_std": 0.026383314698136248, "peak_ndvi": 0.4815581651090732}}, {"type": "Feature", "geometry": {"geodesic": false, "type": "Polygon", "coordinates": [[[43.2247864335858, 46.502746457230394], [43.22803345878384, 46.502746457230394], [43.22803345878384, 46.50499574145308], [43.2247864335858, 46.50499574145308], [43.2247864335858, 46.502746457230394]]]}, "properties": {"id": "ROS1-36-0019", "tile": 36, "cell_id": "43.2_46.5", "cell_lon": 43.2, "cell_lat": 46.5, "cropland_frac": 1, "ndvi_std": 0.037719783756860734, "peak_ndvi": 0.4970678424619291}}, {"type": "Feature", "geometry": {"geodesic": false, "type": "Polygon", "coordinates": [[[38.58766203783535, 47.19085596486572], [38.590950927912985, 47.19085596486572], [38.590950927912985, 47.19310524908863], [38.58766203783535, 47.19310524908863], [38.58766203783535, 47.19085596486572]]]}, "properties": {"id": "ROS1-01-0031", "tile": 1, "cell_id": "38.6_47.2", "cell_lon": 38.6, "cell_lat": 47.2, "cropland_frac": 1, "ndvi_std": 0.05025337943933714, "peak_ndvi": 0.6343872739677063}}, {"type": "Feature", "geometry": {"geodesic": false, "type": "Polygon", "coordinates": [[[39.477001431758964, 46.95459904514237], [39.48027577339166, 46.95459904514237], [39.48027577339166, 46.956848329365194], [39.477001431758964, 46.956848329365194], [39.477001431758964, 46.95459904514237]]]}, "properties": {"id": "ROS1-07-0018", "tile": 7, "cell_id": "39.5_47.0", "cell_lon": 39.5, "cell_lat": 47, "cropland_frac": 1, "ndvi_std": 0.046895967542469635, "peak_ndvi": 0.6442656203179419}}, {"type": "Feature", "geometry": {"geodesic": false, "type": "Polygon", "coordinates": [[[39.74020569322011, 47.02376932201953], [39.743484275173145, 47.02376932201953], [39.743484275173145, 47.02601860624239], [39.74020569322011, 47.02601860624239], [39.74020569322011, 47.02376932201953]]]}, "properties": {"id": "ROS1-13-0013", "tile": 13, "cell_id": "39.7_47.0", "cell_lon": 39.7, "cell_lat": 47, "cropland_frac": 1, "ndvi_std": 0.07377092678518885, "peak_ndvi": 0.6374528833906531}}, {"type": "Feature", "geometry": {"geodesic": false, "type": "Polygon", "coordinates": [[[40.333932386123244, 48.87519712258927], [40.33733057825076, 48.87519712258927], [40.33733057825076, 48.87744640681274], [40.333932386123244, 48.87744640681274], [40.333932386123244, 48.87519712258927]]]}, "properties": {"id": "ROS1-15-0003", "tile": 15, "cell_id": "40.3_48.9", "cell_lon": 40.3, "cell_lat": 48.9, "cropland_frac": 1, "ndvi_std": 0.05153338300482146, "peak_ndvi": 0.5509375311283143}}, {"type": "Feature", "geometry": {"geodesic": false, "type": "Polygon", "coordinates": [[[40.397701829894274, 49.19499736373571], [40.40112193971202, 49.19499736373571], [40.40112193971202, 49.19724664795928], [40.397701829894274, 49.19724664795928], [40.397701829894274, 49.19499736373571]]]}, "properties": {"id": "ROS1-16-0006", "tile": 16, "cell_id": "40.4_49.2", "cell_lon": 40.4, "cell_lat": 49.2, "cropland_frac": 1, "ndvi_std": 0.02602516456385607, "peak_ndvi": 0.6134110014360727}}, {"type": "Feature", "geometry": {"geodesic": false, "type": "Polygon", "coordinates": [[[40.886466204130016, 46.687799405758945], [40.889724336790806, 46.687799405758945], [40.889724336790806, 46.690048689981694], [40.886466204130016, 46.690048689981694], [40.886466204130016, 46.687799405758945]]]}, "properties": {"id": "ROS1-18-0030", "tile": 18, "cell_id": "40.9_46.7", "cell_lon": 40.9, "cell_lat": 46.7, "cropland_frac": 1, "ndvi_std": 0.009180309301976702, "peak_ndvi": 0.614308733254212}}, {"type": "Feature", "geometry": {"geodesic": false, "type": "Polygon", "coordinates": [[[40.75620105020952, 46.9986164940642], [40.7594780884051, 46.9986164940642], [40.7594780884051, 47.00086577828705], [40.75620105020952, 47.00086577828705], [40.75620105020952, 46.9986164940642]]]}, "properties": {"id": "ROS1-19-0037", "tile": 19, "cell_id": "40.8_47.0", "cell_lon": 40.8, "cell_lat": 47, "cropland_frac": 1, "ndvi_std": 0.009975871297533046, "peak_ndvi": 0.6142983185942696}}, {"type": "Feature", "geometry": {"geodesic": false, "type": "Polygon", "coordinates": [[[40.60882710389718, 48.570668241272855], [40.61220478170526, 48.570668241272855], [40.61220478170526, 48.57291752549621], [40.60882710389718, 48.57291752549621], [40.60882710389718, 48.570668241272855]]]}, "properties": {"id": "ROS1-21-0043", "tile": 21, "cell_id": "40.6_48.6", "cell_lon": 40.6, "cell_lat": 48.6, "cropland_frac": 1, "ndvi_std": 0.033190268451178936, "peak_ndvi": 0.6138021372645804}}, {"type": "Feature", "geometry": {"geodesic": false, "type": "Polygon", "coordinates": [[[40.498306094377206, 49.39801661794665], [40.50174032134313, 49.39801661794665], [40.50174032134313, 49.4002659021703], [40.498306094377206, 49.4002659021703], [40.498306094377206, 49.39801661794665]]]}, "properties": {"id": "ROS1-22-0026", "tile": 22, "cell_id": "40.5_49.4", "cell_lon": 40.5, "cell_lat": 49.4, "cropland_frac": 1, "ndvi_std": 0.053489013113696644, "peak_ndvi": 0.5969118285313242}}, {"type": "Feature", "geometry": {"geodesic": false, "type": "Polygon", "coordinates": [[[41.796470011928456, 46.33835476023656], [41.799707261383176, 46.33835476023656], [41.799707261383176, 46.3406040444592], [41.796470011928456, 46.3406040444592], [41.796470011928456, 46.33835476023656]]]}, "properties": {"id": "ROS1-24-0006", "tile": 24, "cell_id": "41.8_46.3", "cell_lon": 41.8, "cell_lat": 46.3, "cropland_frac": 1, "ndvi_std": 0.023097432154625334, "peak_ndvi": 0.5992393712973394}}, {"type": "Feature", "geometry": {"geodesic": false, "type": "Polygon", "coordinates": [[[41.913240276247116, 46.697680873884266], [41.916499005119796, 46.697680873884266], [41.916499005119796, 46.699930158107016], [41.913240276247116, 46.699930158107016], [41.913240276247116, 46.697680873884266]]]}, "properties": {"id": "ROS1-25-0023", "tile": 25, "cell_id": "41.9_46.7", "cell_lon": 41.9, "cell_lat": 46.7, "cropland_frac": 1, "ndvi_std": 0.030313580090403733, "peak_ndvi": 0.628909524104499}}, {"type": "Feature", "geometry": {"geodesic": false, "type": "Polygon", "coordinates": [[[41.37061229480636, 48.15115500358918], [41.37396226856713, 48.15115500358918], [41.37396226856713, 48.15340428781239], [41.37061229480636, 48.15340428781239], [41.37061229480636, 48.15115500358918]]]}, "properties": {"id": "ROS1-26-0036", "tile": 26, "cell_id": "41.4_48.2", "cell_lon": 41.4, "cell_lat": 48.2, "cropland_frac": 1, "ndvi_std": 0.07616738319138389, "peak_ndvi": 0.5800057542591173}}, {"type": "Feature", "geometry": {"geodesic": false, "type": "Polygon", "coordinates": [[[41.94642810229547, 48.28230903507058], [41.94978666899622, 48.28230903507058], [41.94978666899622, 48.28455831929385], [41.94642810229547, 48.28455831929385], [41.94642810229547, 48.28230903507058]]]}, "properties": {"id": "ROS1-27-0021", "tile": 27, "cell_id": "41.9_48.3", "cell_lon": 41.9, "cell_lat": 48.3, "cropland_frac": 1, "ndvi_std": 0.06881418237312299, "peak_ndvi": 0.6361686308549636}}, {"type": "Feature", "geometry": {"geodesic": false, "type": "Polygon", "coordinates": [[[41.94011574238739, 49.00365620821832], [41.943522691937524, 49.00365620821832], [41.943522691937524, 49.005905492441826], [41.94011574238739, 49.005905492441826], [41.94011574238739, 49.00365620821832]]]}, "properties": {"id": "ROS1-28-0030", "tile": 28, "cell_id": "41.9_49.0", "cell_lon": 41.9, "cell_lat": 49, "cropland_frac": 1, "ndvi_std": 0.03352523815863838, "peak_ndvi": 0.5896394827802885}}, {"type": "Feature", "geometry": {"geodesic": false, "type": "Polygon", "coordinates": [[[41.501702639225954, 50.00707438057947], [41.50518019018133, 50.00707438057947], [41.50518019018133, 50.00932366480333], [41.501702639225954, 50.00932366480333], [41.501702639225954, 50.00707438057947]]]}, "properties": {"id": "ROS1-29-0008", "tile": 29, "cell_id": "41.5_50.0", "cell_lon": 41.5, "cell_lat": 50, "cropland_frac": 1, "ndvi_std": 0.03182618324105359, "peak_ndvi": 0.5952488664181826}}, {"type": "Feature", "geometry": {"geodesic": false, "type": "Polygon", "coordinates": [[[42.39474160912936, 46.553052113141064], [42.3979916429756, 46.553052113141064], [42.3979916429756, 46.55530139736376], [42.39474160912936, 46.55530139736376], [42.39474160912936, 46.553052113141064]]]}, "properties": {"id": "ROS1-30-0013", "tile": 30, "cell_id": "42.4_46.6", "cell_lon": 42.4, "cell_lat": 46.6, "cropland_frac": 1, "ndvi_std": 0.06026501354990363, "peak_ndvi": 0.6097840967403997}}, {"type": "Feature", "geometry": {"geodesic": false, "type": "Polygon", "coordinates": [[[42.675905796319164, 46.8351231123545], [42.6791728507329, 46.8351231123545], [42.6791728507329, 46.837372396577294], [42.675905796319164, 46.837372396577294], [42.675905796319164, 46.8351231123545]]]}, "properties": {"id": "ROS1-31-0028", "tile": 31, "cell_id": "42.7_46.8", "cell_lon": 42.7, "cell_lat": 46.8, "cropland_frac": 0.999745895567385, "ndvi_std": 0.028480314067229322, "peak_ndvi": 0.6201446738851046}}, {"type": "Feature", "geometry": {"geodesic": false, "type": "Polygon", "coordinates": [[[42.24018850382514, 47.934661020116444], [42.243524427240715, 47.934661020116444], [42.243524427240715, 47.9369103043396], [42.24018850382514, 47.9369103043396], [42.24018850382514, 47.934661020116444]]]}, "properties": {"id": "ROS1-32-0015", "tile": 32, "cell_id": "42.2_47.9", "cell_lon": 42.2, "cell_lat": 47.9, "cropland_frac": 0.9862629483416, "ndvi_std": 0.07648891950347307, "peak_ndvi": 0.5928072918699138}}, {"type": "Feature", "geometry": {"geodesic": false, "type": "Polygon", "coordinates": [[[42.62643602998146, 48.78536559417734], [42.6298281348494, 48.78536559417734], [42.6298281348494, 48.78761487840078], [42.62643602998146, 48.78761487840078], [42.62643602998146, 48.78536559417734]]]}, "properties": {"id": "ROS1-33-0009", "tile": 33, "cell_id": "42.6_48.8", "cell_lon": 42.6, "cell_lat": 48.8, "cropland_frac": 1, "ndvi_std": 0.011997314555297059, "peak_ndvi": 0.5563166142644743}}, {"type": "Feature", "geometry": {"geodesic": false, "type": "Polygon", "coordinates": [[[42.573427956327954, 49.00545283878657], [42.57683502880114, 49.00545283878657], [42.57683502880114, 49.00770212301007], [42.573427956327954, 49.00770212301007], [42.573427956327954, 49.00545283878657]]]}, "properties": {"id": "ROS1-34-0003", "tile": 34, "cell_id": "42.6_49.0", "cell_lon": 42.6, "cell_lat": 49, "cropland_frac": 1, "ndvi_std": 0.02385805417374557, "peak_ndvi": 0.5591050315679793}}, {"type": "Feature", "geometry": {"geodesic": false, "type": "Polygon", "coordinates": [[[42.95079925320237, 46.536882438026915], [42.95404831910207, 46.536882438026915], [42.95404831910207, 46.539131722249614], [42.95079925320237, 46.539131722249614], [42.95079925320237, 46.536882438026915]]]}, "properties": {"id": "ROS1-36-0014", "tile": 36, "cell_id": "43.0_46.5", "cell_lon": 43, "cell_lat": 46.5, "cropland_frac": 1, "ndvi_std": 0.029045958574795624, "peak_ndvi": 0.6008949719276335}}, {"type": "Feature", "geometry": {"geodesic": false, "type": "Polygon", "coordinates": [[[43.136738913626104, 46.92136137962994], [43.14001122329641, 46.92136137962994], [43.14001122329641, 46.92361066385276], [43.136738913626104, 46.92361066385276], [43.136738913626104, 46.92136137962994]]]}, "properties": {"id": "ROS1-37-0012", "tile": 37, "cell_id": "43.1_46.9", "cell_lon": 43.1, "cell_lat": 46.9, "cropland_frac": 1, "ndvi_std": 0.024196118428088144, "peak_ndvi": 0.6312855347403822}}, {"type": "Feature", "geometry": {"geodesic": false, "type": "Polygon", "coordinates": [[[42.79176846414068, 47.48280843220448], [42.79507558998978, 47.48280843220448], [42.79507558998978, 47.48505771642747], [42.79176846414068, 47.48505771642747], [42.79176846414068, 47.48280843220448]]]}, "properties": {"id": "ROS1-38-0001", "tile": 38, "cell_id": "42.8_47.5", "cell_lon": 42.8, "cell_lat": 47.5, "cropland_frac": 0.9639853133256471, "ndvi_std": 0.021159332240438044, "peak_ndvi": 0.6400549748137125}}, {"type": "Feature", "geometry": {"geodesic": false, "type": "Polygon", "coordinates": [[[43.71706633426909, 46.39764356898845], [43.72030709953297, 46.39764356898845], [43.72030709953297, 46.39989285321109], [43.71706633426909, 46.39989285321109], [43.71706633426909, 46.39764356898845]]]}, "properties": {"id": "ROS1-42-0000", "tile": 42, "cell_id": "43.7_46.4", "cell_lon": 43.7, "cell_lat": 46.4, "cropland_frac": 1, "ndvi_std": 0.046978999575330034, "peak_ndvi": 0.6138565635993364}}, {"type": "Feature", "geometry": {"geodesic": false, "type": "Polygon", "coordinates": [[[43.53198380459871, 47.36962070640545], [43.53528382645422, 47.36962070640545], [43.53528382645422, 47.371869990628404], [43.53198380459871, 47.371869990628404], [43.53198380459871, 47.36962070640545]]]}, "properties": {"id": "ROS1-43-0006", "tile": 43, "cell_id": "43.5_47.4", "cell_lon": 43.5, "cell_lat": 47.4, "cropland_frac": 1, "ndvi_std": 0.03975393282777768, "peak_ndvi": 0.6003389258199426}}, {"type": "Feature", "geometry": {"geodesic": false, "type": "Polygon", "coordinates": [[[44.30005333129678, 47.04802383469077], [44.30333340385014, 47.04802383469077], [44.30333340385014, 47.05027311891362], [44.30005333129678, 47.05027311891362], [44.30005333129678, 47.04802383469077]]]}, "properties": {"id": "ROS1-49-0003", "tile": 49, "cell_id": "44.3_47.0", "cell_lon": 44.3, "cell_lat": 47, "cropland_frac": 0.9998412963939968, "ndvi_std": 0.057296271820357236, "peak_ndvi": 0.6478103711004879}}, {"type": "Feature", "geometry": {"geodesic": false, "type": "Polygon", "coordinates": [[[39.872196560672734, 48.92729940906818], [39.87559829726826, 48.92729940906818], [39.87559829726826, 48.929548693291665], [39.872196560672734, 48.929548693291665], [39.872196560672734, 48.92729940906818]]]}, "properties": {"id": "ROS1-15-0006", "tile": 15, "cell_id": "39.9_48.9", "cell_lon": 39.9, "cell_lat": 48.9, "cropland_frac": 1, "ndvi_std": 0.036397936340743745, "peak_ndvi": 0.6100294160890668}}, {"type": "Feature", "geometry": {"geodesic": false, "type": "Polygon", "coordinates": [[[41.16136092017082, 46.3446429672254], [41.16459854198843, 46.3446429672254], [41.16459854198843, 46.34689225144804], [41.16136092017082, 46.34689225144804], [41.16136092017082, 46.3446429672254]]]}, "properties": {"id": "ROS1-18-0024", "tile": 18, "cell_id": "41.2_46.3", "cell_lon": 41.2, "cell_lat": 46.3, "cropland_frac": 1, "ndvi_std": 0.06010541710813587, "peak_ndvi": 0.6344837964547897}}, {"type": "Feature", "geometry": {"geodesic": false, "type": "Polygon", "coordinates": [[[41.00414135240225, 46.82524164422919], [41.00740780620107, 46.82524164422919], [41.00740780620107, 46.82749092845197], [41.00414135240225, 46.82749092845197], [41.00414135240225, 46.82524164422919]]]}, "properties": {"id": "ROS1-19-0016", "tile": 19, "cell_id": "41.0_46.8", "cell_lon": 41, "cell_lat": 46.8, "cropland_frac": 1, "ndvi_std": 0.06801149467575036, "peak_ndvi": 0.6352823170567776}}, {"type": "Feature", "geometry": {"geodesic": false, "type": "Polygon", "coordinates": [[[40.589065364723126, 48.53473562990808], [40.59244064456121, 48.53473562990808], [40.59244064456121, 48.53698491413143], [40.589065364723126, 48.53698491413143], [40.589065364723126, 48.53473562990808]]]}, "properties": {"id": "ROS1-21-0036", "tile": 21, "cell_id": "40.6_48.5", "cell_lon": 40.6, "cell_lat": 48.5, "cropland_frac": 1, "ndvi_std": 0.031243481305707595, "peak_ndvi": 0.6455541209969848}}, {"type": "Feature", "geometry": {"geodesic": false, "type": "Polygon", "coordinates": [[[40.78216469084191, 49.654934789204745], [40.785617013246274, 49.654934789204745], [40.785617013246274, 49.657184073428475], [40.78216469084191, 49.657184073428475], [40.78216469084191, 49.654934789204745]]]}, "properties": {"id": "ROS1-22-0006", "tile": 22, "cell_id": "40.8_49.7", "cell_lon": 40.8, "cell_lat": 49.7, "cropland_frac": 1, "ndvi_std": 0.07455275367102807, "peak_ndvi": 0.5803647857589939}}, {"type": "Feature", "geometry": {"geodesic": false, "type": "Polygon", "coordinates": [[[41.5808768338949, 46.25391312352936], [41.584109095100736, 46.25391312352936], [41.584109095100736, 46.256162407751965], [41.5808768338949, 46.256162407751965], [41.5808768338949, 46.25391312352936]]]}, "properties": {"id": "ROS1-24-0034", "tile": 24, "cell_id": "41.6_46.3", "cell_lon": 41.6, "cell_lat": 46.3, "cropland_frac": 1, "ndvi_std": 0.06711838918478161, "peak_ndvi": 0.6244361207541618}}, {"type": "Feature", "geometry": {"geodesic": false, "type": "Polygon", "coordinates": [[[41.89796845613159, 46.71295223371428], [41.90122810704269, 46.71295223371428], [41.90122810704269, 46.71520151793703], [41.89796845613159, 46.71520151793703], [41.89796845613159, 46.71295223371428]]]}, "properties": {"id": "ROS1-25-0002", "tile": 25, "cell_id": "41.9_46.7", "cell_lon": 41.9, "cell_lat": 46.7, "cropland_frac": 1, "ndvi_std": 0.028175282828028683, "peak_ndvi": 0.5618560577463373}}, {"type": "Feature", "geometry": {"geodesic": false, "type": "Polygon", "coordinates": [[[41.92579035233218, 47.55197870908165], [41.92910184095951, 47.55197870908165], [41.92910184095951, 47.55422799330467], [41.92579035233218, 47.55422799330467], [41.92579035233218, 47.55197870908165]]]}, "properties": {"id": "ROS1-26-0040", "tile": 26, "cell_id": "41.9_47.6", "cell_lon": 41.9, "cell_lat": 47.6, "cropland_frac": 1, "ndvi_std": 0.005194469187562764, "peak_ndvi": 0.6185996457192381}}, {"type": "Feature", "geometry": {"geodesic": false, "type": "Polygon", "coordinates": [[[41.92666487110723, 48.29129218791178], [41.93002402862359, 48.29129218791178], [41.93002402862359, 48.29354147213503], [41.92666487110723, 48.29354147213503], [41.92666487110723, 48.29129218791178]]]}, "properties": {"id": "ROS1-27-0005", "tile": 27, "cell_id": "41.9_48.3", "cell_lon": 41.9, "cell_lat": 48.3, "cropland_frac": 1, "ndvi_std": 0.0188197397479513, "peak_ndvi": 0.6337840236579854}}, {"type": "Feature", "geometry": {"geodesic": false, "type": "Polygon", "coordinates": [[[41.85835859384119, 49.30728677425061], [41.861786492119194, 49.30728677425061], [41.861786492119194, 49.30953605847423], [41.85835859384119, 49.30953605847423], [41.85835859384119, 49.30728677425061]]]}, "properties": {"id": "ROS1-28-0013", "tile": 28, "cell_id": "41.9_49.3", "cell_lon": 41.9, "cell_lat": 49.3, "cropland_frac": 1, "ndvi_std": 0.058977112323291184, "peak_ndvi": 0.60828143596998}}, {"type": "Feature", "geometry": {"geodesic": false, "type": "Polygon", "coordinates": [[[42.17644803309723, 46.65186679439418], [42.17970400036864, 46.65186679439418], [42.17970400036864, 46.654116078616916], [42.17644803309723, 46.654116078616916], [42.17644803309723, 46.65186679439418]]]}, "properties": {"id": "ROS1-30-0014", "tile": 30, "cell_id": "42.2_46.7", "cell_lon": 42.2, "cell_lat": 46.7, "cropland_frac": 0.9837562442742813, "ndvi_std": 0.05852937852817404, "peak_ndvi": 0.5698392922305457}}, {"type": "Feature", "geometry": {"geodesic": false, "type": "Polygon", "coordinates": [[[42.544749524733334, 46.90878496565228], [42.548021066497505, 46.90878496565228], [42.548021066497505, 46.911034249875094], [42.544749524733334, 46.911034249875094], [42.544749524733334, 46.90878496565228]]]}, "properties": {"id": "ROS1-31-0021", "tile": 31, "cell_id": "42.5_46.9", "cell_lon": 42.5, "cell_lat": 46.9, "cropland_frac": 1, "ndvi_std": 0.038504824642196595, "peak_ndvi": 0.6365086700904059}}, {"type": "Feature", "geometry": {"geodesic": false, "type": "Polygon", "coordinates": [[[42.08119148188531, 47.78554068295265], [42.0845178233515, 47.78554068295265], [42.0845178233515, 47.78778996717575], [42.08119148188531, 47.78778996717575], [42.08119148188531, 47.78554068295265]]]}, "properties": {"id": "ROS1-32-0006", "tile": 32, "cell_id": "42.1_47.8", "cell_lon": 42.1, "cell_lat": 47.8, "cropland_frac": 1, "ndvi_std": 0.05629587872243638, "peak_ndvi": 0.6404248379211447}}, {"type": "Feature", "geometry": {"geodesic": false, "type": "Polygon", "coordinates": [[[42.61207078631739, 48.55270193559046], [42.61544726454872, 48.55270193559046], [42.61544726454872, 48.554951219813816], [42.61207078631739, 48.554951219813816], [42.61207078631739, 48.55270193559046]]]}, "properties": {"id": "ROS1-33-0008", "tile": 33, "cell_id": "42.6_48.6", "cell_lon": 42.6, "cell_lat": 48.6, "cropland_frac": 0.9576125, "ndvi_std": 0.06766648023479571, "peak_ndvi": 0.5953964208215258}}, {"type": "Feature", "geometry": {"geodesic": false, "type": "Polygon", "coordinates": [[[42.362325274383004, 48.96413033571708], [42.36572952271465, 48.96413033571708], [42.36572952271465, 48.96637961994057], [42.362325274383004, 48.96637961994057], [42.362325274383004, 48.96413033571708]]]}, "properties": {"id": "ROS1-34-0005", "tile": 34, "cell_id": "42.4_49.0", "cell_lon": 42.4, "cell_lat": 49, "cropland_frac": 1, "ndvi_std": 0.011626111956760282, "peak_ndvi": 0.5833423665073758}}, {"type": "Feature", "geometry": {"geodesic": false, "type": "Polygon", "coordinates": [[[43.41792282515599, 46.54945885200459], [43.42117264383079, 46.54945885200459], [43.42117264383079, 46.55170813622728], [43.41792282515599, 46.55170813622728], [43.41792282515599, 46.54945885200459]]]}, "properties": {"id": "ROS1-36-0005", "tile": 36, "cell_id": "43.4_46.6", "cell_lon": 43.4, "cell_lat": 46.6, "cropland_frac": 1, "ndvi_std": 0.025430729094180697, "peak_ndvi": 0.5780038882959045}}, {"type": "Feature", "geometry": {"geodesic": false, "type": "Polygon", "coordinates": [[[43.11787844085928, 46.784817456443825], [43.12114244090534, 46.784817456443825], [43.12114244090534, 46.7870667406666], [43.11787844085928, 46.7870667406666], [43.11787844085928, 46.784817456443825]]]}, "properties": {"id": "ROS1-37-0019", "tile": 37, "cell_id": "43.1_46.8", "cell_lon": 43.1, "cell_lat": 46.8, "cropland_frac": 0.992228012776578, "ndvi_std": 0.07775160853509284, "peak_ndvi": 0.5580889624753445}}, {"type": "Feature", "geometry": {"geodesic": false, "type": "Polygon", "coordinates": [[[42.97861719566728, 47.50975789072805], [42.98192601935912, 47.50975789072805], [42.98192601935912, 47.51200717495105], [42.97861719566728, 47.51200717495105], [42.97861719566728, 47.50975789072805]]]}, "properties": {"id": "ROS1-38-0007", "tile": 38, "cell_id": "43.0_47.5", "cell_lon": 43, "cell_lat": 47.5, "cropland_frac": 1, "ndvi_std": 0.058656331633542794, "peak_ndvi": 0.5635529530539665}}, {"type": "Feature", "geometry": {"geodesic": false, "type": "Polygon", "coordinates": [[[43.74940413754771, 46.449745855467356], [43.75264800164268, 46.449745855467356], [43.75264800164268, 46.45199513969002], [43.74940413754771, 46.45199513969002], [43.74940413754771, 46.449745855467356]]]}, "properties": {"id": "ROS1-42-0016", "tile": 42, "cell_id": "43.8_46.5", "cell_lon": 43.8, "cell_lat": 46.5, "cropland_frac": 1, "ndvi_std": 0.015544438476678739, "peak_ndvi": 0.6073354224128273}}, {"type": "Feature", "geometry": {"geodesic": false, "type": "Polygon", "coordinates": [[[44.14195388087693, 46.91597148792523], [44.14522586138118, 46.91597148792523], [44.14522586138118, 46.918220772148054], [44.14195388087693, 46.918220772148054], [44.14195388087693, 46.91597148792523]]]}, "properties": {"id": "ROS1-43-0016", "tile": 43, "cell_id": "44.1_46.9", "cell_lon": 44.1, "cell_lat": 46.9, "cropland_frac": 1, "ndvi_std": 0.03413571245155394, "peak_ndvi": 0.6372617203663852}}, {"type": "Feature", "geometry": {"geodesic": false, "type": "Polygon", "coordinates": [[[44.279393567020996, 46.99951480934833], [44.28267066031486, 46.99951480934833], [44.28267066031486, 47.001764093571175], [44.279393567020996, 47.001764093571175], [44.279393567020996, 46.99951480934833]]]}, "properties": {"id": "ROS1-49-0012", "tile": 49, "cell_id": "44.3_47.0", "cell_lon": 44.3, "cell_lat": 47, "cropland_frac": 1, "ndvi_std": 0.07268654883319858, "peak_ndvi": 0.6099639188115072}}, {"type": "Feature", "geometry": {"geodesic": false, "type": "Polygon", "coordinates": [[[40.95653633604743, 46.63659543456416], [40.95979138428719, 46.63659543456416], [40.95979138428719, 46.638844718786885], [40.95653633604743, 46.638844718786885], [40.95653633604743, 46.63659543456416]]]}, "properties": {"id": "ROS1-18-0009", "tile": 18, "cell_id": "41.0_46.6", "cell_lon": 41, "cell_lat": 46.6, "cropland_frac": 1, "ndvi_std": 0.018518873582942668, "peak_ndvi": 0.6073397086148203}}, {"type": "Feature", "geometry": {"geodesic": false, "type": "Polygon", "coordinates": [[[40.757952036876944, 48.432327687518494], [40.761320508399656, 48.432327687518494], [40.761320508399656, 48.43457697174181], [40.757952036876944, 48.43457697174181], [40.757952036876944, 48.432327687518494]]]}, "properties": {"id": "ROS1-21-0000", "tile": 21, "cell_id": "40.8_48.4", "cell_lon": 40.8, "cell_lat": 48.4, "cropland_frac": 1, "ndvi_std": 0.029530687402025645, "peak_ndvi": 0.6001495927153391}}, {"type": "Feature", "geometry": {"geodesic": false, "type": "Polygon", "coordinates": [[[41.66890038332987, 46.63569711928003], [41.672155377532306, 46.63569711928003], [41.672155377532306, 46.63794640350276], [41.66890038332987, 46.63794640350276], [41.66890038332987, 46.63569711928003]]]}, "properties": {"id": "ROS1-24-0023", "tile": 24, "cell_id": "41.7_46.6", "cell_lon": 41.7, "cell_lat": 46.6, "cropland_frac": 0.9695723968599786, "ndvi_std": 0.05014665486718184, "peak_ndvi": 0.5949530509890896}}, {"type": "Feature", "geometry": {"geodesic": false, "type": "Polygon", "coordinates": [[[41.52426193682697, 46.95549736042648], [41.52753633342788, 46.95549736042648], [41.52753633342788, 46.95774664464932], [41.52426193682697, 46.95774664464932], [41.52426193682697, 46.95549736042648]]]}, "properties": {"id": "ROS1-25-0027", "tile": 25, "cell_id": "41.5_47.0", "cell_lon": 41.5, "cell_lat": 47, "cropland_frac": 0.999892582614711, "ndvi_std": 0.043980266021428065, "peak_ndvi": 0.5938730599961531}}, {"type": "Feature", "geometry": {"geodesic": false, "type": "Polygon", "coordinates": [[[38.29840451634886, 47.19085596486572], [38.301693406426494, 47.19085596486572], [38.301693406426494, 47.19310524908863], [38.29840451634886, 47.19310524908863], [38.29840451634886, 47.19085596486572]]]}, "properties": {"id": "ROS1-01-0005", "tile": 1, "cell_id": "38.3_47.2", "cell_lon": 38.3, "cell_lat": 47.2, "cropland_frac": 0.9979934970480021, "ndvi_std": 0.06942747321796744, "peak_ndvi": 0.7482551445209887}}, {"type": "Feature", "geometry": {"geodesic": false, "type": "Polygon", "coordinates": [[[39.21110197050497, 46.893513605822264], [39.21437258050788, 46.893513605822264], [39.21437258050788, 46.89576289004507], [39.21110197050497, 46.89576289004507], [39.21110197050497, 46.893513605822264]]]}, "properties": {"id": "ROS1-07-0005", "tile": 7, "cell_id": "39.2_46.9", "cell_lon": 39.2, "cell_lat": 46.9, "cropland_frac": 0.9720270694676884, "ndvi_std": 0.058533606051573504, "peak_ndvi": 0.6678851612622564}}, {"type": "Feature", "geometry": {"geodesic": false, "type": "Polygon", "coordinates": [[[39.605437164650915, 47.7037939920978], [39.60875828621108, 47.7037939920978], [39.60875828621108, 47.70604327632087], [39.605437164650915, 47.70604327632087], [39.605437164650915, 47.7037939920978]]]}, "properties": {"id": "ROS1-08-0022", "tile": 8, "cell_id": "39.6_47.7", "cell_lon": 39.6, "cell_lat": 47.7, "cropland_frac": 1, "ndvi_std": 0.06219860862833411, "peak_ndvi": 0.7029391952244901}}, {"type": "Feature", "geometry": {"geodesic": false, "type": "Polygon", "coordinates": [[[40.236983983144, 46.69678255860015], [40.24024265780257, 46.69678255860015], [40.24024265780257, 46.6990318428229], [40.236983983144, 46.6990318428229], [40.236983983144, 46.69678255860015]]]}, "properties": {"id": "ROS1-13-0005", "tile": 13, "cell_id": "40.2_46.7", "cell_lon": 40.2, "cell_lat": 46.7, "cropland_frac": 0.9959022056410526, "ndvi_std": 0.04986039637100902, "peak_ndvi": 0.6999331861531103}}, {"type": "Feature", "geometry": {"geodesic": false, "type": "Polygon", "coordinates": [[[40.207299393428976, 47.98496667602713], [40.21063856688476, 47.98496667602713], [40.21063856688476, 47.98721596025028], [40.207299393428976, 47.98721596025028], [40.207299393428976, 47.98496667602713]]]}, "properties": {"id": "ROS1-14-0002", "tile": 14, "cell_id": "40.2_48.0", "cell_lon": 40.2, "cell_lat": 48, "cropland_frac": 1, "ndvi_std": 0.03943740327342095, "peak_ndvi": 0.717246042642362}}, {"type": "Feature", "geometry": {"geodesic": false, "type": "Polygon", "coordinates": [[[40.281841328236396, 48.54102383689692], [40.285217027377584, 48.54102383689692], [40.285217027377584, 48.543273121120265], [40.281841328236396, 48.543273121120265], [40.281841328236396, 48.54102383689692]]]}, "properties": {"id": "ROS1-15-0022", "tile": 15, "cell_id": "40.3_48.5", "cell_lon": 40.3, "cell_lat": 48.5, "cropland_frac": 1, "ndvi_std": 0.032985889979966924, "peak_ndvi": 0.7347555759606895}}, {"type": "Feature", "geometry": {"geodesic": false, "type": "Polygon", "coordinates": [[[40.19826334075792, 49.55342516209927], [40.20170848254471, 49.55342516209927], [40.20170848254471, 49.55567444632297], [40.19826334075792, 49.55567444632297], [40.19826334075792, 49.55342516209927]]]}, "properties": {"id": "ROS1-16-0004", "tile": 16, "cell_id": "40.2_49.6", "cell_lon": 40.2, "cell_lat": 49.6, "cropland_frac": 1, "ndvi_std": 0.0796700868278784, "peak_ndvi": 0.6585199187663959}}, {"type": "Feature", "geometry": {"geodesic": false, "type": "Polygon", "coordinates": [[[40.899949976028935, 46.385067155010766], [40.903189994587144, 46.385067155010766], [40.903189994587144, 46.38731643923342], [40.899949976028935, 46.38731643923342], [40.899949976028935, 46.385067155010766]]]}, "properties": {"id": "ROS1-18-0027", "tile": 18, "cell_id": "40.9_46.4", "cell_lon": 40.9, "cell_lat": 46.4, "cropland_frac": 1, "ndvi_std": 0.02257449295905327, "peak_ndvi": 0.7479264170404417}}, {"type": "Feature", "geometry": {"geodesic": false, "type": "Polygon", "coordinates": [[[41.073306592991706, 46.99053165650712], [41.076583135422304, 46.99053165650712], [41.076583135422304, 46.99278094072997], [41.073306592991706, 46.99278094072997], [41.073306592991706, 46.99053165650712]]]}, "properties": {"id": "ROS1-19-0012", "tile": 19, "cell_id": "41.1_47.0", "cell_lon": 41.1, "cell_lat": 47, "cropland_frac": 1, "ndvi_std": 0.06903701418532102, "peak_ndvi": 0.7183887430549132}}, {"type": "Feature", "geometry": {"geodesic": false, "type": "Polygon", "coordinates": [[[41.06429576104791, 47.87357558079634], [41.06762774993074, 47.87357558079634], [41.06762774993074, 47.87582486501947], [41.06429576104791, 47.87582486501947], [41.06429576104791, 47.87357558079634]]]}, "properties": {"id": "ROS1-20-0038", "tile": 20, "cell_id": "41.1_47.9", "cell_lon": 41.1, "cell_lat": 47.9, "cropland_frac": 1, "ndvi_std": 0.051669258872174405, "peak_ndvi": 0.6625411806220525}}, {"type": "Feature", "geometry": {"geodesic": false, "type": "Polygon", "coordinates": [[[41.04811443774469, 48.23290169444403], [41.05146976014416, 48.23290169444403], [41.05146976014416, 48.23515097866728], [41.04811443774469, 48.23515097866728], [41.04811443774469, 48.23290169444403]]]}, "properties": {"id": "ROS1-21-0003", "tile": 21, "cell_id": "41.0_48.2", "cell_lon": 41, "cell_lat": 48.2, "cropland_frac": 1, "ndvi_std": 0.024819876251029216, "peak_ndvi": 0.7474480127380381}}, {"type": "Feature", "geometry": {"geodesic": false, "type": "Polygon", "coordinates": [[[40.5863327854796, 49.63157859181764], [40.58978345209676, 49.63157859181764], [40.58978345209676, 49.63382787604136], [40.5863327854796, 49.63382787604136], [40.5863327854796, 49.63157859181764]]]}, "properties": {"id": "ROS1-22-0014", "tile": 22, "cell_id": "40.6_49.6", "cell_lon": 40.6, "cell_lat": 49.6, "cropland_frac": 1, "ndvi_std": 0.046465071831479625, "peak_ndvi": 0.7383918281246654}}, {"type": "Feature", "geometry": {"geodesic": false, "type": "Polygon", "coordinates": [[[41.29162658577638, 46.00507978982833], [41.29484427705901, 46.00507978982833], [41.29484427705901, 46.00732907405086], [41.29162658577638, 46.00732907405086], [41.29162658577638, 46.00507978982833]]]}, "properties": {"id": "ROS1-24-0030", "tile": 24, "cell_id": "41.3_46.0", "cell_lon": 41.3, "cell_lat": 46, "cropland_frac": 1, "ndvi_std": 0.01199838041884967, "peak_ndvi": 0.6625796042796542}}, {"type": "Feature", "geometry": {"geodesic": false, "type": "Polygon", "coordinates": [[[41.59612606085591, 46.991429971791256], [41.59940265836087, 46.991429971791256], [41.59940265836087, 46.99367925601409], [41.59612606085591, 46.99367925601409], [41.59612606085591, 46.991429971791256]]]}, "properties": {"id": "ROS1-25-0012", "tile": 25, "cell_id": "41.6_47.0", "cell_lon": 41.6, "cell_lat": 47, "cropland_frac": 1, "ndvi_std": 0.018640080879089447, "peak_ndvi": 0.7146493683063483}}, {"type": "Feature", "geometry": {"geodesic": false, "type": "Polygon", "coordinates": [[[41.45236579709103, 47.94094922710528], [41.45570212627499, 47.94094922710528], [41.45570212627499, 47.94319851132844], [41.45236579709103, 47.94319851132844], [41.45236579709103, 47.94094922710528]]]}, "properties": {"id": "ROS1-26-0018", "tile": 26, "cell_id": "41.5_47.9", "cell_lon": 41.5, "cell_lat": 47.9, "cropland_frac": 1, "ndvi_std": 0.041324295520348026, "peak_ndvi": 0.7071682119878172}}, {"type": "Feature", "geometry": {"geodesic": false, "type": "Polygon", "coordinates": [[[41.94191704925414, 48.866213969748074], [41.94531463129671, 48.866213969748074], [41.94531463129671, 48.86846325397154], [41.94191704925414, 48.86846325397154], [41.94191704925414, 48.866213969748074]]]}, "properties": {"id": "ROS1-27-0019", "tile": 27, "cell_id": "41.9_48.9", "cell_lon": 41.9, "cell_lat": 48.9, "cropland_frac": 1, "ndvi_std": 0.02505255866286693, "peak_ndvi": 0.6774490453872462}}, {"type": "Feature", "geometry": {"geodesic": false, "type": "Polygon", "coordinates": [[[41.92752727741829, 49.35310085374069], [41.93095836737693, 49.35310085374069], [41.93095836737693, 49.355350137964315], [41.92752727741829, 49.355350137964315], [41.92752727741829, 49.35310085374069]]]}, "properties": {"id": "ROS1-28-0002", "tile": 28, "cell_id": "41.9_49.4", "cell_lon": 41.9, "cell_lat": 49.4, "cropland_frac": 1, "ndvi_std": 0.01179969919023593, "peak_ndvi": 0.6876437893697603}}, {"type": "Feature", "geometry": {"geodesic": false, "type": "Polygon", "coordinates": [[[41.74964530169558, 49.79417365824322], [41.75310754017065, 49.79417365824322], [41.75310754017065, 49.796422942467004], [41.74964530169558, 49.796422942467004], [41.74964530169558, 49.79417365824322]]]}, "properties": {"id": "ROS1-29-0003", "tile": 29, "cell_id": "41.8_49.8", "cell_lon": 41.8, "cell_lat": 49.8, "cropland_frac": 1, "ndvi_std": 0.06472614887810553, "peak_ndvi": 0.6503224158740564}}, {"type": "Feature", "geometry": {"geodesic": false, "type": "Polygon", "coordinates": [[[42.17285458294061, 46.65815500138302], [42.17611092885492, 46.65815500138302], [42.17611092885492, 46.66040428560576], [42.17285458294061, 46.66040428560576], [42.17285458294061, 46.65815500138302]]]}, "properties": {"id": "ROS1-30-0002", "tile": 30, "cell_id": "42.2_46.7", "cell_lon": 42.2, "cell_lat": 46.7, "cropland_frac": 1, "ndvi_std": 0.05990156813427554, "peak_ndvi": 0.7060371086737689}}, {"type": "Feature", "geometry": {"geodesic": false, "type": "Polygon", "coordinates": [[[42.086599123827405, 47.221398684525774], [42.089889908226915, 47.221398684525774], [42.089889908226915, 47.223647968748686], [42.086599123827405, 47.223647968748686], [42.086599123827405, 47.221398684525774]]]}, "properties": {"id": "ROS1-31-0022", "tile": 31, "cell_id": "42.1_47.2", "cell_lon": 42.1, "cell_lat": 47.2, "cropland_frac": 1, "ndvi_std": 0.04282238828814999, "peak_ndvi": 0.7404110748817596}}, {"type": "Feature", "geometry": {"geodesic": false, "type": "Polygon", "coordinates": [[[42.070407637994016, 47.91220313801347], [42.073742113369924, 47.91220313801347], [42.073742113369924, 47.9144524222366], [42.070407637994016, 47.9144524222366], [42.070407637994016, 47.91220313801347]]]}, "properties": {"id": "ROS1-32-0025", "tile": 32, "cell_id": "42.1_47.9", "cell_lon": 42.1, "cell_lat": 47.9, "cropland_frac": 1, "ndvi_std": 0.03232385801258956, "peak_ndvi": 0.6544348356912593}}, {"type": "Feature", "geometry": {"geodesic": false, "type": "Polygon", "coordinates": [[[42.09912240663673, 48.86082407804336], [42.102519622773556, 48.86082407804336], [42.102519622773556, 48.863073362266825], [42.09912240663673, 48.863073362266825], [42.09912240663673, 48.86082407804336]]]}, "properties": {"id": "ROS1-33-0020", "tile": 33, "cell_id": "42.1_48.9", "cell_lon": 42.1, "cell_lat": 48.9, "cropland_frac": 0.9980370882647693, "ndvi_std": 0.04008384464805345, "peak_ndvi": 0.7107462713164584}}, {"type": "Feature", "geometry": {"geodesic": false, "type": "Polygon", "coordinates": [[[43.36043495335653, 46.4048300912614], [43.363676145534036, 46.4048300912614], [43.363676145534036, 46.40707937548406], [43.36043495335653, 46.40707937548406], [43.36043495335653, 46.4048300912614]]]}, "properties": {"id": "ROS1-36-0007", "tile": 36, "cell_id": "43.4_46.4", "cell_lon": 43.4, "cell_lat": 46.4, "cropland_frac": 1, "ndvi_std": 0.032568889684472045, "peak_ndvi": 0.6851858530092398}}, {"type": "Feature", "geometry": {"geodesic": false, "type": "Polygon", "coordinates": [[[42.88430554050632, 47.14234693952328], [42.88759142835118, 47.14234693952328], [42.88759142835118, 47.14459622374618], [42.88430554050632, 47.14459622374618], [42.88430554050632, 47.14234693952328]]]}, "properties": {"id": "ROS1-37-0031", "tile": 37, "cell_id": "42.9_47.1", "cell_lon": 42.9, "cell_lat": 47.1, "cropland_frac": 1, "ndvi_std": 0.007875039070554937, "peak_ndvi": 0.6758740039577249}}, {"type": "Feature", "geometry": {"geodesic": false, "type": "Polygon", "coordinates": [[[43.150194566127325, 47.53670734925163], [43.15350509013889, 47.53670734925163], [43.15350509013889, 47.53895663347464], [43.150194566127325, 47.53895663347464], [43.150194566127325, 47.53670734925163]]]}, "properties": {"id": "ROS1-38-0004", "tile": 38, "cell_id": "43.2_47.5", "cell_lon": 43.2, "cell_lat": 47.5, "cropland_frac": 1, "ndvi_std": 0.03520436700560656, "peak_ndvi": 0.667525972092671}}, {"type": "Feature", "geometry": {"geodesic": false, "type": "Polygon", "coordinates": [[[43.63262859910691, 46.26559122222291], [43.6358615488425, 46.26559122222291], [43.6358615488425, 46.267840506445516], [43.63262859910691, 46.267840506445516], [43.63262859910691, 46.26559122222291]]]}, "properties": {"id": "ROS1-42-0010", "tile": 42, "cell_id": "43.6_46.3", "cell_lon": 43.6, "cell_lat": 46.3, "cropland_frac": 1, "ndvi_std": 0.07235450859576069, "peak_ndvi": 0.7175456308440853}}, {"type": "Feature", "geometry": {"geodesic": false, "type": "Polygon", "coordinates": [[[43.493362693019144, 47.16210987577391], [43.496649803049564, 47.16210987577391], [43.496649803049564, 47.1643591599968], [43.493362693019144, 47.1643591599968], [43.493362693019144, 47.16210987577391]]]}, "properties": {"id": "ROS1-43-0026", "tile": 43, "cell_id": "43.5_47.2", "cell_lon": 43.5, "cell_lat": 47.2, "cropland_frac": 1, "ndvi_std": 0.00677542216069178, "peak_ndvi": 0.6764915188247559}}, {"type": "Feature", "geometry": {"geodesic": false, "type": "Polygon", "coordinates": [[[43.50233588211027, 47.48191011692036], [43.50564295140721, 47.48191011692036], [43.50564295140721, 47.48415940114336], [43.50233588211027, 47.48415940114336], [43.50233588211027, 47.48191011692036]]]}, "properties": {"id": "ROS1-44-0000", "tile": 44, "cell_id": "43.5_47.5", "cell_lon": 43.5, "cell_lat": 47.5, "cropland_frac": 1, "ndvi_std": 0.026035603114152157, "peak_ndvi": 0.666691275473662}}, {"type": "Feature", "geometry": {"geodesic": false, "type": "Polygon", "coordinates": [[[44.25963145535241, 46.972565350824745], [44.26290689685334, 46.972565350824745], [44.26290689685334, 46.97481463504758], [44.25963145535241, 46.97481463504758], [44.25963145535241, 46.972565350824745]]]}, "properties": {"id": "ROS1-49-0001", "tile": 49, "cell_id": "44.3_47.0", "cell_lon": 44.3, "cell_lat": 47, "cropland_frac": 1, "ndvi_std": 0.039434695292830876, "peak_ndvi": 0.6582946313788196}}, {"type": "Feature", "geometry": {"geodesic": false, "type": "Polygon", "coordinates": [[[44.238053751950595, 47.55647028550225], [44.24136552444021, 47.55647028550225], [44.24136552444021, 47.55871956972527], [44.238053751950595, 47.55871956972527], [44.238053751950595, 47.55647028550225]]]}, "properties": {"id": "ROS1-50-0003", "tile": 50, "cell_id": "44.2_47.6", "cell_lon": 44.2, "cell_lat": 47.6, "cropland_frac": 1, "ndvi_std": 0.030885851125364454, "peak_ndvi": 0.7136558366344373}}, {"type": "Feature", "geometry": {"geodesic": false, "type": "Polygon", "coordinates": [[[38.73499637217672, 46.84410626519569], [38.73826397288006, 46.84410626519569], [38.73826397288006, 46.84635554941849], [38.73499637217672, 46.84635554941849], [38.73499637217672, 46.84410626519569]]]}, "properties": {"id": "ROS1-01-0044", "tile": 1, "cell_id": "38.7_46.8", "cell_lon": 38.7, "cell_lat": 46.8, "cropland_frac": 0.9941008538691077, "ndvi_std": 0.03431833215083926, "peak_ndvi": 0.7341283181610901}}, {"type": "Feature", "geometry": {"geodesic": false, "type": "Polygon", "coordinates": [[[39.63420289002983, 47.07587160849846], [39.637484676411134, 47.07587160849846], [39.637484676411134, 47.07812089272133], [39.63420289002983, 47.07812089272133], [39.63420289002983, 47.07587160849846]]]}, "properties": {"id": "ROS1-07-0020", "tile": 7, "cell_id": "39.6_47.1", "cell_lon": 39.6, "cell_lat": 47.1, "cropland_frac": 0.9923469387755102, "ndvi_std": 0.05616735494959009, "peak_ndvi": 0.6867295067157052}}, {"type": "Feature", "geometry": {"geodesic": false, "type": "Polygon", "coordinates": [[[39.344025700161794, 47.75769290914497], [39.3473502608163, 47.75769290914497], [39.3473502608163, 47.759942193368055], [39.344025700161794, 47.759942193368055], [39.344025700161794, 47.75769290914497]]]}, "properties": {"id": "ROS1-08-0025", "tile": 8, "cell_id": "39.3_47.8", "cell_lon": 39.3, "cell_lat": 47.8, "cropland_frac": 1, "ndvi_std": 0.04046114801128441, "peak_ndvi": 0.7463270402985531}}, {"type": "Feature", "geometry": {"geodesic": false, "type": "Polygon", "coordinates": [[[40.43280837246878, 46.971667035540634], [40.436083758951085, 46.971667035540634], [40.436083758951085, 46.973916319763454], [40.43280837246878, 46.973916319763454], [40.43280837246878, 46.971667035540634]]]}, "properties": {"id": "ROS1-13-0000", "tile": 13, "cell_id": "40.4_47.0", "cell_lon": 40.4, "cell_lat": 47, "cropland_frac": 1, "ndvi_std": 0.04048494998868812, "peak_ndvi": 0.69305241677873}}, {"type": "Feature", "geometry": {"geodesic": false, "type": "Polygon", "coordinates": [[[40.287262536854485, 47.57533490646875], [40.29057550231972, 47.57533490646875], [40.29057550231972, 47.57758419069178], [40.287262536854485, 47.57758419069178], [40.287262536854485, 47.57533490646875]]]}, "properties": {"id": "ROS1-14-0009", "tile": 14, "cell_id": "40.3_47.6", "cell_lon": 40.3, "cell_lat": 47.6, "cropland_frac": 1, "ndvi_std": 0.05391810549662354, "peak_ndvi": 0.7254316235161413}}, {"type": "Feature", "geometry": {"geodesic": false, "type": "Polygon", "coordinates": [[[40.34921104393634, 48.65870313911655], [40.35259461682816, 48.65870313911655], [40.35259461682816, 48.66095242333993], [40.34921104393634, 48.66095242333993], [40.34921104393634, 48.65870313911655]]]}, "properties": {"id": "ROS1-15-0013", "tile": 15, "cell_id": "40.4_48.7", "cell_lon": 40.4, "cell_lat": 48.7, "cropland_frac": 1, "ndvi_std": 0.021301656677110387, "peak_ndvi": 0.7078813010693319}}, {"type": "Feature", "geometry": {"geodesic": false, "type": "Polygon", "coordinates": [[[40.774177685566514, 46.65815500138302], [40.77743403148083, 46.65815500138302], [40.77743403148083, 46.66040428560575], [40.774177685566514, 46.66040428560575], [40.774177685566514, 46.65815500138302]]]}, "properties": {"id": "ROS1-18-0014", "tile": 18, "cell_id": "40.8_46.7", "cell_lon": 40.8, "cell_lat": 46.7, "cropland_frac": 1, "ndvi_std": 0.04862245607390882, "peak_ndvi": 0.6558910890007723}}, {"type": "Feature", "geometry": {"geodesic": false, "type": "Polygon", "coordinates": [[[40.55406692357002, 47.42441793873672], [40.55737037923555, 47.42441793873672], [40.55737037923555, 47.4266672229597], [40.55406692357002, 47.4266672229597], [40.55406692357002, 47.42441793873672]]]}, "properties": {"id": "ROS1-19-0004", "tile": 19, "cell_id": "40.6_47.4", "cell_lon": 40.6, "cell_lat": 47.4, "cropland_frac": 0.9900720637841154, "ndvi_std": 0.047764763426976116, "peak_ndvi": 0.7238960895684532}}, {"type": "Feature", "geometry": {"geodesic": false, "type": "Polygon", "coordinates": [[[40.57022591969056, 47.762184485565555], [40.57355076739066, 47.762184485565555], [40.57355076739066, 47.764433769788646], [40.57022591969056, 47.764433769788646], [40.57022591969056, 47.762184485565555]]]}, "properties": {"id": "ROS1-20-0017", "tile": 20, "cell_id": "40.6_47.8", "cell_lon": 40.6, "cell_lat": 47.8, "cropland_frac": 1, "ndvi_std": 0.07089451078511408, "peak_ndvi": 0.6676352180696341}}, {"type": "Feature", "geometry": {"geodesic": false, "type": "Polygon", "coordinates": [[[41.05797869470505, 48.75122961338082], [41.061368494311175, 48.75122961338082], [41.061368494311175, 48.75347889760424], [41.05797869470505, 48.75347889760424], [41.05797869470505, 48.75122961338082]]]}, "properties": {"id": "ROS1-21-0010", "tile": 21, "cell_id": "41.1_48.8", "cell_lon": 41.1, "cell_lat": 48.8, "cropland_frac": 1, "ndvi_std": 0.018795517466470773, "peak_ndvi": 0.7463732240518944}}, {"type": "Feature", "geometry": {"geodesic": false, "type": "Polygon", "coordinates": [[[40.81093207883737, 49.04318208071956], [40.81434173552008, 49.04318208071956], [40.81434173552008, 49.045431364943084], [40.81093207883737, 49.045431364943084], [40.81093207883737, 49.04318208071956]]]}, "properties": {"id": "ROS1-22-0022", "tile": 22, "cell_id": "40.8_49.0", "cell_lon": 40.8, "cell_lat": 49, "cropland_frac": 0.99900146067323, "ndvi_std": 0.03873581501896092, "peak_ndvi": 0.7004351016236597}}, {"type": "Feature", "geometry": {"geodesic": false, "type": "Polygon", "coordinates": [[[41.40031057692866, 46.419203135807294], [41.403552623423984, 46.419203135807294], [41.403552623423984, 46.42145242002995], [41.40031057692866, 46.42145242002995], [41.40031057692866, 46.419203135807294]]]}, "properties": {"id": "ROS1-24-0024", "tile": 24, "cell_id": "41.4_46.4", "cell_lon": 41.4, "cell_lat": 46.4, "cropland_frac": 0.9800008680178811, "ndvi_std": 0.04679463452900598, "peak_ndvi": 0.7151050948637802}}, {"type": "Feature", "geometry": {"geodesic": false, "type": "Polygon", "coordinates": [[[41.927603575278134, 47.01837943031483], [41.93088182625038, 47.01837943031483], [41.93088182625038, 47.02062871453767], [41.927603575278134, 47.02062871453767], [41.927603575278134, 47.01837943031483]]]}, "properties": {"id": "ROS1-25-0018", "tile": 25, "cell_id": "41.9_47.0", "cell_lon": 41.9, "cell_lat": 47, "cropland_frac": 1, "ndvi_std": 0.029844456540542526, "peak_ndvi": 0.6773310736919148}}, {"type": "Feature", "geometry": {"geodesic": false, "type": "Polygon", "coordinates": [[[41.71107641651178, 48.07030662801846], [41.71442112384207, 48.07030662801846], [41.71442112384207, 48.07255591224165], [41.71107641651178, 48.07255591224165], [41.71107641651178, 48.07030662801846]]]}, "properties": {"id": "ROS1-26-0030", "tile": 26, "cell_id": "41.7_48.1", "cell_lon": 41.7, "cell_lat": 48.1, "cropland_frac": 1, "ndvi_std": 0.033852805416000366, "peak_ndvi": 0.7164908660159112}}, {"type": "Feature", "geometry": {"geodesic": false, "type": "Polygon", "coordinates": [[[41.23226259607494, 48.42963274166613], [41.23563088894755, 48.42963274166613], [41.23563088894755, 48.43188202588945], [41.23226259607494, 48.43188202588945], [41.23226259607494, 48.42963274166613]]]}, "properties": {"id": "ROS1-27-0013", "tile": 27, "cell_id": "41.2_48.4", "cell_lon": 41.2, "cell_lat": 48.4, "cropland_frac": 0.9957439343755614, "ndvi_std": 0.06025899095051257, "peak_ndvi": 0.7418619989945512}}, {"type": "Feature", "geometry": {"geodesic": false, "type": "Polygon", "coordinates": [[[41.86285013905962, 49.30818508953473], [41.86627809984146, 49.30818508953473], [41.86627809984146, 49.31043437375835], [41.86285013905962, 49.31043437375835], [41.86285013905962, 49.30818508953473]]]}, "properties": {"id": "ROS1-28-0015", "tile": 28, "cell_id": "41.9_49.3", "cell_lon": 41.9, "cell_lat": 49.3, "cropland_frac": 1, "ndvi_std": 0.059170160590490205, "peak_ndvi": 0.6592722619832739}}, {"type": "Feature", "geometry": {"geodesic": false, "type": "Polygon", "coordinates": [[[41.24119808095247, 49.81573322506207], [41.24466186174558, 49.81573322506207], [41.24466186174558, 49.81798250928586], [41.24119808095247, 49.81798250928586], [41.24119808095247, 49.81573322506207]]]}, "properties": {"id": "ROS1-29-0005", "tile": 29, "cell_id": "41.2_49.8", "cell_lon": 41.2, "cell_lat": 49.8, "cropland_frac": 1, "ndvi_std": 0.04290836409204097, "peak_ndvi": 0.6578677825909831}}, {"type": "Feature", "geometry": {"geodesic": false, "type": "Polygon", "coordinates": [[[42.469297653592015, 46.690494351611314], [42.4725559488248, 46.690494351611314], [42.4725559488248, 46.692743635834056], [42.469297653592015, 46.692743635834056], [42.469297653592015, 46.690494351611314]]]}, "properties": {"id": "ROS1-30-0015", "tile": 30, "cell_id": "42.5_46.7", "cell_lon": 42.5, "cell_lat": 46.7, "cropland_frac": 1, "ndvi_std": 0.01872426899722863, "peak_ndvi": 0.7424900813519494}}, {"type": "Feature", "geometry": {"geodesic": false, "type": "Polygon", "coordinates": [[[42.33274111903169, 47.10461769759028], [42.3360246772193, 47.10461769759028], [42.3360246772193, 47.10686698181315], [42.33274111903169, 47.10686698181315], [42.33274111903169, 47.10461769759028]]]}, "properties": {"id": "ROS1-31-0033", "tile": 31, "cell_id": "42.3_47.1", "cell_lon": 42.3, "cell_lat": 47.1, "cropland_frac": 1, "ndvi_std": 0.009400755106381225, "peak_ndvi": 0.6901781673821965}}, {"type": "Feature", "geometry": {"geodesic": false, "type": "Polygon", "coordinates": [[[42.19888068708817, 47.47292696407916], [42.202187191014644, 47.47292696407916], [42.202187191014644, 47.475176248302155], [42.19888068708817, 47.475176248302155], [42.19888068708817, 47.47292696407916]]]}, "properties": {"id": "ROS1-32-0029", "tile": 32, "cell_id": "42.2_47.5", "cell_lon": 42.2, "cell_lat": 47.5, "cropland_frac": 1, "ndvi_std": 0.01796548077949493, "peak_ndvi": 0.7111097957968845}}, {"type": "Feature", "geometry": {"geodesic": false, "type": "Polygon", "coordinates": [[[42.37939406021385, 48.940774138329964], [42.38279671514407, 48.940774138329964], [42.38279671514407, 48.943023422553445], [42.37939406021385, 48.943023422553445], [42.37939406021385, 48.940774138329964]]]}, "properties": {"id": "ROS1-33-0013", "tile": 33, "cell_id": "42.4_48.9", "cell_lon": 42.4, "cell_lat": 48.9, "cropland_frac": 1, "ndvi_std": 0.007003503857568949, "peak_ndvi": 0.6663084407641128}}, {"type": "Feature", "geometry": {"geodesic": false, "type": "Polygon", "coordinates": [[[42.777422521898814, 46.59976450791527], [42.78067535673375, 46.59976450791527], [42.78067535673375, 46.60201379213798], [42.777422521898814, 46.60201379213798], [42.777422521898814, 46.59976450791527]]]}, "properties": {"id": "ROS1-36-0006", "tile": 36, "cell_id": "42.8_46.6", "cell_lon": 42.8, "cell_lat": 46.6, "cropland_frac": 1, "ndvi_std": 0.037990190578826626, "peak_ndvi": 0.6870078450917997}}, {"type": "Feature", "geometry": {"geodesic": false, "type": "Polygon", "coordinates": [[[43.05229894530519, 46.86656414729868], [43.055567912883866, 46.86656414729868], [43.055567912883866, 46.86881343152148], [43.05229894530519, 46.86881343152148], [43.05229894530519, 46.86656414729868]]]}, "properties": {"id": "ROS1-37-0046", "tile": 37, "cell_id": "43.1_46.9", "cell_lon": 43.1, "cell_lat": 46.9, "cropland_frac": 1, "ndvi_std": 0.05537804644261242, "peak_ndvi": 0.7372883784299392}}, {"type": "Feature", "geometry": {"geodesic": false, "type": "Polygon", "coordinates": [[[43.791620504592366, 46.59886619263115], [43.79487328549621, 46.59886619263115], [43.79487328549621, 46.60111547685386], [43.791620504592366, 46.60111547685386], [43.791620504592366, 46.59886619263115]]]}, "properties": {"id": "ROS1-42-0009", "tile": 42, "cell_id": "43.8_46.6", "cell_lon": 43.8, "cell_lat": 46.6, "cropland_frac": 1, "ndvi_std": 0.03422470521960014, "peak_ndvi": 0.6819213901494782}}, {"type": "Feature", "geometry": {"geodesic": false, "type": "Polygon", "coordinates": [[[43.50144405163088, 47.2743992862888], [43.50473813064348, 47.2743992862888], [43.50473813064348, 47.27664857051174], [43.50144405163088, 47.27664857051174], [43.50144405163088, 47.2743992862888]]]}, "properties": {"id": "ROS1-43-0017", "tile": 43, "cell_id": "43.5_47.3", "cell_lon": 43.5, "cell_lat": 47.3, "cropland_frac": 1, "ndvi_std": 0.05951828607998143, "peak_ndvi": 0.7195498756061874}}, {"type": "Feature", "geometry": {"geodesic": false, "type": "Polygon", "coordinates": [[[44.27400471958542, 46.96537882855179], [44.27727972101175, 46.96537882855179], [44.27727972101175, 46.96762811277463], [44.27400471958542, 46.96762811277463], [44.27400471958542, 46.96537882855179]]]}, "properties": {"id": "ROS1-49-0002", "tile": 49, "cell_id": "44.3_47.0", "cell_lon": 44.3, "cell_lat": 47, "cropland_frac": 0.9966747435170388, "ndvi_std": 0.058755559233654484, "peak_ndvi": 0.6640875526490219}}, {"type": "Feature", "geometry": {"geodesic": false, "type": "Polygon", "coordinates": [[[38.27684149315032, 47.30224706009651], [38.28013730700687, 47.30224706009651], [38.28013730700687, 47.304496344319446], [38.27684149315032, 47.304496344319446], [38.27684149315032, 47.30224706009651]]]}, "properties": {"id": "ROS1-01-0009", "tile": 1, "cell_id": "38.3_47.3", "cell_lon": 38.3, "cell_lat": 47.3, "cropland_frac": 1, "ndvi_std": 0.06959529761202375, "peak_ndvi": 0.6823848850292822}}, {"type": "Feature", "geometry": {"geodesic": false, "type": "Polygon", "coordinates": [[[39.181459777157414, 46.820750067808596], [39.184725958054564, 46.820750067808596], [39.184725958054564, 46.822999352031374], [39.181459777157414, 46.822999352031374], [39.181459777157414, 46.820750067808596]]]}, "properties": {"id": "ROS1-07-0031", "tile": 7, "cell_id": "39.2_46.8", "cell_lon": 39.2, "cell_lat": 46.8, "cropland_frac": 1, "ndvi_std": 0.028256521425658362, "peak_ndvi": 0.7160447705872517}}, {"type": "Feature", "geometry": {"geodesic": false, "type": "Polygon", "coordinates": [[[40.245058304223754, 47.04263394298604], [40.24833804536467, 47.04263394298604], [40.24833804536467, 47.044883227208906], [40.245058304223754, 47.044883227208906], [40.245058304223754, 47.04263394298604]]]}, "properties": {"id": "ROS1-13-0020", "tile": 13, "cell_id": "40.2_47.0", "cell_lon": 40.2, "cell_lat": 47, "cropland_frac": 1, "ndvi_std": 0.05938519715616633, "peak_ndvi": 0.7316437603522056}}, {"type": "Feature", "geometry": {"geodesic": false, "type": "Polygon", "coordinates": [[[39.865937522047105, 48.04874706119957], [39.86928082891469, 48.04874706119957], [39.86928082891469, 48.05099634542276], [39.865937522047105, 48.05099634542276], [39.865937522047105, 48.04874706119957]]]}, "properties": {"id": "ROS1-14-0031", "tile": 14, "cell_id": "39.9_48.0", "cell_lon": 39.9, "cell_lat": 48, "cropland_frac": 0.9985230132213461, "ndvi_std": 0.04249904327007788, "peak_ndvi": 0.7397210421572513}}, {"type": "Feature", "geometry": {"geodesic": false, "type": "Polygon", "coordinates": [[[40.14170135610153, 48.624567158320005], [40.145082639755984, 48.624567158320005], [40.145082639755984, 48.62681644254338], [40.14170135610153, 48.62681644254338], [40.14170135610153, 48.624567158320005]]]}, "properties": {"id": "ROS1-15-0025", "tile": 15, "cell_id": "40.1_48.6", "cell_lon": 40.1, "cell_lat": 48.6, "cropland_frac": 1, "ndvi_std": 0.04504969826872843, "peak_ndvi": 0.7091279975582516}}, {"type": "Feature", "geometry": {"geodesic": false, "type": "Polygon", "coordinates": [[[41.030193122045254, 46.804580392694454], [41.033458321039966, 46.804580392694454], [41.033458321039966, 46.80682967691723], [41.030193122045254, 46.80682967691723], [41.030193122045254, 46.804580392694454]]]}, "properties": {"id": "ROS1-19-0018", "tile": 19, "cell_id": "41.0_46.8", "cell_lon": 41, "cell_lat": 46.8, "cropland_frac": 1, "ndvi_std": 0.056086699590855285, "peak_ndvi": 0.675014918560075}}, {"type": "Feature", "geometry": {"geodesic": false, "type": "Polygon", "coordinates": [[[40.74449790847674, 47.79901541221444], [40.747825112593354, 47.79901541221444], [40.747825112593354, 47.801264696437535], [40.74449790847674, 47.801264696437535], [40.74449790847674, 47.79901541221444]]]}, "properties": {"id": "ROS1-20-0026", "tile": 20, "cell_id": "40.7_47.8", "cell_lon": 40.7, "cell_lat": 47.8, "cropland_frac": 0.9724179048939929, "ndvi_std": 0.05991099110683378, "peak_ndvi": 0.7339078364450086}}, {"type": "Feature", "geometry": {"geodesic": false, "type": "Polygon", "coordinates": [[[40.55673258595972, 48.33620795211774], [40.560094701915375, 48.33620795211774], [40.560094701915375, 48.338457236341014], [40.55673258595972, 48.338457236341014], [40.55673258595972, 48.33620795211774]]]}, "properties": {"id": "ROS1-21-0037", "tile": 21, "cell_id": "40.6_48.3", "cell_lon": 40.6, "cell_lat": 48.3, "cropland_frac": 1, "ndvi_std": 0.04516546519064679, "peak_ndvi": 0.7227319103022922}}, {"type": "Feature", "geometry": {"geodesic": false, "type": "Polygon", "coordinates": [[[40.62317169931619, 49.404304824935494], [40.62660636608945, 49.404304824935494], [40.62660636608945, 49.40655410915914], [40.62317169931619, 49.40655410915914], [40.62317169931619, 49.404304824935494]]]}, "properties": {"id": "ROS1-22-0002", "tile": 22, "cell_id": "40.6_49.4", "cell_lon": 40.6, "cell_lat": 49.4, "cropland_frac": 1, "ndvi_std": 0.04806052932846078, "peak_ndvi": 0.7079708020059856}}, {"type": "Feature", "geometry": {"geodesic": false, "type": "Polygon", "coordinates": [[[41.59344633277067, 46.487475097400356], [41.59669244622582, 46.487475097400356], [41.59669244622582, 46.48972438162304], [41.59344633277067, 46.48972438162304], [41.59344633277067, 46.487475097400356]]]}, "properties": {"id": "ROS1-24-0018", "tile": 24, "cell_id": "41.6_46.5", "cell_lon": 41.6, "cell_lat": 46.5, "cropland_frac": 0.9529669281782325, "ndvi_std": 0.008843079917824877, "peak_ndvi": 0.7004191321125659}}, {"type": "Feature", "geometry": {"geodesic": false, "type": "Polygon", "coordinates": [[[41.89167959868738, 46.734511800533156], [41.894940552582945, 46.734511800533156], [41.894940552582945, 46.73676108475591], [41.89167959868738, 46.73676108475591], [41.89167959868738, 46.734511800533156]]]}, "properties": {"id": "ROS1-25-0032", "tile": 25, "cell_id": "41.9_46.7", "cell_lon": 41.9, "cell_lat": 46.7, "cropland_frac": 0.9900587671835763, "ndvi_std": 0.05894856731969413, "peak_ndvi": 0.7457456854802968}}, {"type": "Feature", "geometry": {"geodesic": false, "type": "Polygon", "coordinates": [[[41.854822452226024, 47.58341974402583], [41.85813592933964, 47.58341974402583], [41.85813592933964, 47.585669028248866], [41.854822452226024, 47.585669028248866], [41.854822452226024, 47.58341974402583]]]}, "properties": {"id": "ROS1-26-0004", "tile": 26, "cell_id": "41.9_47.6", "cell_lon": 41.9, "cell_lat": 47.6, "cropland_frac": 1, "ndvi_std": 0.033538839409339015, "peak_ndvi": 0.6655054359576202}}, {"type": "Feature", "geometry": {"geodesic": false, "type": "Polygon", "coordinates": [[[41.918560638693044, 48.87250217673691], [41.9219586477633, 48.87250217673691], [41.9219586477633, 48.87475146096037], [41.918560638693044, 48.87475146096037], [41.918560638693044, 48.87250217673691]]]}, "properties": {"id": "ROS1-27-0027", "tile": 27, "cell_id": "41.9_48.9", "cell_lon": 41.9, "cell_lat": 48.9, "cropland_frac": 1, "ndvi_std": 0.049021066671813995, "peak_ndvi": 0.6502890937730195}}, {"type": "Feature", "geometry": {"geodesic": false, "type": "Polygon", "coordinates": [[[41.89699168031152, 49.147386653677394], [41.90040850245259, 49.147386653677394], [41.90040850245259, 49.149635937900946], [41.89699168031152, 49.149635937900946], [41.89699168031152, 49.147386653677394]]]}, "properties": {"id": "ROS1-28-0023", "tile": 28, "cell_id": "41.9_49.1", "cell_lon": 41.9, "cell_lat": 49.1, "cropland_frac": 0.9999258813937593, "ndvi_std": 0.0500895491568991, "peak_ndvi": 0.7084465149751158}}, {"type": "Feature", "geometry": {"geodesic": false, "type": "Polygon", "coordinates": [[[41.66430223216729, 49.881310240802776], [41.66777071565726, 49.881310240802776], [41.66777071565726, 49.88355952502659], [41.66430223216729, 49.88355952502659], [41.66430223216729, 49.881310240802776]]]}, "properties": {"id": "ROS1-29-0001", "tile": 29, "cell_id": "41.7_49.9", "cell_lon": 41.7, "cell_lat": 49.9, "cropland_frac": 1, "ndvi_std": 0.0598176925897807, "peak_ndvi": 0.7483449853457784}}, {"type": "Feature", "geometry": {"geodesic": false, "type": "Polygon", "coordinates": [[[42.50792693961672, 46.63300217342767], [42.51118177172274, 46.63300217342767], [42.51118177172274, 46.6352514576504], [42.50792693961672, 46.6352514576504], [42.50792693961672, 46.63300217342767]]]}, "properties": {"id": "ROS1-30-0004", "tile": 30, "cell_id": "42.5_46.6", "cell_lon": 42.5, "cell_lat": 46.6, "cropland_frac": 1, "ndvi_std": 0.020984362206788815, "peak_ndvi": 0.6945409133305762}}, {"type": "Feature", "geometry": {"geodesic": false, "type": "Polygon", "coordinates": [[[42.40370808179802, 47.10282106702204], [42.40699152916748, 47.10282106702204], [42.40699152916748, 47.10507035124491], [42.40370808179802, 47.10507035124491], [42.40370808179802, 47.10282106702204]]]}, "properties": {"id": "ROS1-31-0020", "tile": 31, "cell_id": "42.4_47.1", "cell_lon": 42.4, "cell_lat": 47.1, "cropland_frac": 1, "ndvi_std": 0.017498471127623257, "peak_ndvi": 0.6543748676707918}}, {"type": "Feature", "geometry": {"geodesic": false, "type": "Polygon", "coordinates": [[[41.97607782007983, 48.119713968645], [41.97942574302262, 48.119713968645], [41.97942574302262, 48.12196325286822], [41.97607782007983, 48.12196325286822], [41.97607782007983, 48.119713968645]]]}, "properties": {"id": "ROS1-32-0008", "tile": 32, "cell_id": "42.0_48.1", "cell_lon": 42, "cell_lat": 48.1, "cropland_frac": 1, "ndvi_std": 0.014355832273037746, "peak_ndvi": 0.6885838876659391}}, {"type": "Feature", "geometry": {"geodesic": false, "type": "Polygon", "coordinates": [[[42.006602020263614, 48.680262705935405], [42.00998704120675, 48.680262705935405], [42.00998704120675, 48.682511990158794], [42.006602020263614, 48.682511990158794], [42.006602020263614, 48.680262705935405]]]}, "properties": {"id": "ROS1-33-0007", "tile": 33, "cell_id": "42.0_48.7", "cell_lon": 42, "cell_lat": 48.7, "cropland_frac": 1, "ndvi_std": 0.05030759800231251, "peak_ndvi": 0.6828345787068804}}, {"type": "Feature", "geometry": {"geodesic": false, "type": "Polygon", "coordinates": [[[42.88791863042387, 46.48837341268448], [42.89116479749041, 46.48837341268448], [42.89116479749041, 46.49062269690716], [42.88791863042387, 46.49062269690716], [42.88791863042387, 46.48837341268448]]]}, "properties": {"id": "ROS1-36-0004", "tile": 36, "cell_id": "42.9_46.5", "cell_lon": 42.9, "cell_lat": 46.5, "cropland_frac": 1, "ndvi_std": 0.039450952246762636, "peak_ndvi": 0.7418047435284123}}, {"type": "Feature", "geometry": {"geodesic": false, "type": "Polygon", "coordinates": [[[43.326280362506196, 47.02197269145131], [43.32955883412164, 47.02197269145131], [43.32955883412164, 47.02422197567415], [43.326280362506196, 47.02422197567415], [43.326280362506196, 47.02197269145131]]]}, "properties": {"id": "ROS1-37-0020", "tile": 37, "cell_id": "43.3_47.0", "cell_lon": 43.3, "cell_lat": 47, "cropland_frac": 1, "ndvi_std": 0.023054609077774093, "peak_ndvi": 0.7072202339114203}}, {"type": "Feature", "geometry": {"geodesic": false, "type": "Polygon", "coordinates": [[[43.84642346877318, 46.406626721829625], [43.84966476770463, 46.406626721829625], [43.84966476770463, 46.40887600605229], [43.84642346877318, 46.40887600605229], [43.84642346877318, 46.406626721829625]]]}, "properties": {"id": "ROS1-42-0015", "tile": 42, "cell_id": "43.8_46.4", "cell_lon": 43.8, "cell_lat": 46.4, "cropland_frac": 1, "ndvi_std": 0.01895461727113003, "peak_ndvi": 0.7459245670455645}}, {"type": "Feature", "geometry": {"geodesic": false, "type": "Polygon", "coordinates": [[[43.4978470095003, 47.395671849644906], [43.501148662555686, 47.395671849644906], [43.501148662555686, 47.397921133867875], [43.4978470095003, 47.397921133867875], [43.4978470095003, 47.395671849644906]]]}, "properties": {"id": "ROS1-43-0027", "tile": 43, "cell_id": "43.5_47.4", "cell_lon": 43.5, "cell_lat": 47.4, "cropland_frac": 1, "ndvi_std": 0.0213852017483246, "peak_ndvi": 0.6690883689811373}}, {"type": "Feature", "geometry": {"geodesic": false, "type": "Polygon", "coordinates": [[[44.24076710898151, 46.963582197983555], [44.244042000415725, 46.963582197983555], [44.244042000415725, 46.96583148220638], [44.24076710898151, 46.96583148220638], [44.24076710898151, 46.963582197983555]]]}, "properties": {"id": "ROS1-49-0013", "tile": 49, "cell_id": "44.2_47.0", "cell_lon": 44.2, "cell_lat": 47, "cropland_frac": 1, "ndvi_std": 0.059122263137059206, "peak_ndvi": 0.718828734581424}}, {"type": "Feature", "geometry": {"geodesic": false, "type": "Polygon", "coordinates": [[[38.65503593420409, 47.18277112730865], [38.658324323364944, 47.18277112730865], [38.658324323364944, 47.185020411531546], [38.65503593420409, 47.185020411531546], [38.65503593420409, 47.18277112730865]]]}, "properties": {"id": "ROS1-01-0036", "tile": 1, "cell_id": "38.7_47.2", "cell_lon": 38.7, "cell_lat": 47.2, "cropland_frac": 1, "ndvi_std": 0.044278685299054384, "peak_ndvi": 0.7040353531429485}}, {"type": "Feature", "geometry": {"geodesic": false, "type": "Polygon", "coordinates": [[[39.62252426633336, 47.092939598896734], [39.6258071043943, 47.092939598896734], [39.6258071043943, 47.09518888311961], [39.62252426633336, 47.09518888311961], [39.62252426633336, 47.092939598896734]]]}, "properties": {"id": "ROS1-07-0002", "tile": 7, "cell_id": "39.6_47.1", "cell_lon": 39.6, "cell_lat": 47.1, "cropland_frac": 1, "ndvi_std": 0.06034002217588523, "peak_ndvi": 0.6954895883724004}}, {"type": "Feature", "geometry": {"geodesic": false, "type": "Polygon", "coordinates": [[[38.45021712527315, 47.27709423214116], [38.45351137206006, 47.27709423214116], [38.45351137206006, 47.2793435163641], [38.45021712527315, 47.2793435163641], [38.45021712527315, 47.27709423214116]]]}, "properties": {"id": "ROS1-01-0045", "tile": 1, "cell_id": "38.5_47.3", "cell_lon": 38.5, "cell_lat": 47.3, "cropland_frac": 0.9760399760826857, "ndvi_std": 0.060956759789808815, "peak_ndvi": 0.831342030093653}}, {"type": "Feature", "geometry": {"geodesic": false, "type": "Polygon", "coordinates": [[[38.435837933694145, 47.473825279363275], [38.43914449414531, 47.473825279363275], [38.43914449414531, 47.47607456358627], [38.435837933694145, 47.47607456358627], [38.435837933694145, 47.473825279363275]]]}, "properties": {"id": "ROS1-02-0007", "tile": 2, "cell_id": "38.4_47.5", "cell_lon": 38.4, "cell_lat": 47.5, "cropland_frac": 1, "ndvi_std": 0.03652881028748057, "peak_ndvi": 0.7593044641649241}}, {"type": "Feature", "geometry": {"geodesic": false, "type": "Polygon", "coordinates": [[[39.160802570386025, 46.686901090474834], [39.164060648861366, 46.686901090474834], [39.164060648861366, 46.689150374697576], [39.160802570386025, 46.689150374697576], [39.160802570386025, 46.686901090474834]]]}, "properties": {"id": "ROS1-06-0000", "tile": 6, "cell_id": "39.2_46.7", "cell_lon": 39.2, "cell_lat": 46.7, "cropland_frac": 1, "ndvi_std": 0.010197310633169173, "peak_ndvi": 0.8925468391016694}}, {"type": "Feature", "geometry": {"geodesic": false, "type": "Polygon", "coordinates": [[[39.69348090952565, 47.423519623452606], [39.69678430881723, 47.423519623452606], [39.69678430881723, 47.42576890767558], [39.69348090952565, 47.42576890767558], [39.69348090952565, 47.423519623452606]]]}, "properties": {"id": "ROS1-07-0025", "tile": 7, "cell_id": "39.7_47.4", "cell_lon": 39.7, "cell_lat": 47.4, "cropland_frac": 1, "ndvi_std": 0.07125219532658145, "peak_ndvi": 0.7565989271062706}}, {"type": "Feature", "geometry": {"geodesic": false, "type": "Polygon", "coordinates": [[[39.140111131794384, 47.66336980431243], [39.14342968062503, 47.66336980431243], [39.14342968062503, 47.665619088535486], [39.140111131794384, 47.665619088535486], [39.140111131794384, 47.66336980431243]]]}, "properties": {"id": "ROS1-08-0003", "tile": 8, "cell_id": "39.1_47.7", "cell_lon": 39.1, "cell_lat": 47.7, "cropland_frac": 1, "ndvi_std": 0.04627328116809591, "peak_ndvi": 0.7641192349742516}}]}